place_code,toponymName,lat,lng,geonameId,countryName,fcl,fcode,C21_country,latitude,longitude,place_name,string_sim,geo_dist,gd_scaled,ss_scaled,combined_measure
pl001,Genthod,46.26724,6.15561,8436501,Switzerland,P,PPL,Switzerland,46.26458056,6.1575,GENTHOD,1,0.3294781620015255,0.08190262916322653,0,0.04095131458161327
pl002,Aigle,46.3181,6.96457,2661834,Switzerland,P,PPLA2,Switzerland,46.31768333,6.96686111,AIGLE,1,0.1819493427349575,0.045001657838356864,0,0.022500828919178432
pl003,Aire-sur-la-Lys,50.63871,2.39876,3038393,France,P,PPL,France,50.63798889,2.39558889,Aire-sur-la-Lys,1,0.2375713624128978,0.058914238196357036,0,0.029457119098178518
pl004,Aix-en-Provence,43.5283,5.44973,3038354,France,P,PPLA3,France,43.52490833,5.45414444,Aix-en-Provence,1,0.5185544378617787,0.12919574971023992,0,0.06459787485511996
pl005,Alicante,38.34517,-0.48149,2521978,Spain,P,PPLA2,Spain,38.35520278,-0.51578611,ALICANTE,1,3.192009976327811,0.7978997131371686,0,0.3989498565685843
pl006,Altdorf,46.88042,8.64441,2661780,Switzerland,P,PPLA,Switzerland,46.880475,8.64463611,ALTDORF,1,0.018241094482653736,0.004053771151298725,0,0.0020268855756493624
pl007,Altona,53.55,9.93333,2911296,Germany,P,PPLX,Germany,53.54318889,9.96366389,ALTONA,1,2.1424468689638143,0.5353754258757124,0,0.2676877129378562
pl008,Ambert,45.55,3.75,3037937,France,P,PPLA3,France,45.55061944,3.73944167,AMBERT,1,0.8250350354137307,0.20585488518029765,0,0.10292744259014883
pl009,Amiens,49.9,2.3,3037854,France,P,PPLA2,France,49.89391667,2.29424167,AMIENS,1,0.7922658914680051,0.19765843077163847,0,0.09882921538581924
pl010,Amsterdam,52.37403,4.88969,2759794,Netherlands,P,PPLC,Netherlands,52.35472778,4.90405278,AMSTERDAM,1,2.35748074717113,0.5891612489647327,0,0.2945806244823663
pl012,Anduze,44.05409,3.98545,3037682,France,P,PPL,France,44.05506944,3.98514167,ANDUZE,1,0.11166123452989059,0.027420689738368295,0,0.013710344869184148
pl013,Ins,47.00584,7.10609,2660254,Switzerland,P,PPL,Switzerland,47.00604444,7.10614167,Ins,1,0.023067846300022225,0.005261073096033666,0,0.002630536548016833
pl014,Annecy,45.90621,6.1267,3037543,France,P,PPLA2,France,45.899625,6.12845278,ANNECY,1,0.7446734850185864,0.18575427513342196,0,0.09287713756671098
pl015,Annonay,45.23969,4.67075,3037514,France,P,PPL,France,45.24034444,4.66843333,ANNONAY,1,0.19544036204113774,0.048376128799593895,0,0.024188064399796948
pl016,Apt,43.88333,5.4,3037352,France,P,PPLA3,France,43.87693056,5.39173611,APT,1,0.9721338432320784,0.2426482989432006,0,0.1213241494716003
pl017,Aarberg,47.04439,7.27578,2661880,Switzerland,P,PPL,Switzerland,47.03333333,7.27760556,Aarberg,1,1.2372043122464775,0.3089496346740606,0,0.1544748173370303
pl018,Arbois,46.90311,5.77454,3037287,France,P,PPL,France,46.902075,5.77173611,ARBOIS,1,0.24212050118154615,0.06005210156494692,0,0.03002605078247346
pl019,Ardon,46.77403,5.88751,3037120,France,P,PPL,France,46.77403611,5.88894722,ARDON,1,0.10945344454003728,0.026868461397411367,0,0.013434230698705684
pl020,Aubonne,46.49514,6.39155,2661687,Switzerland,P,PPL,Switzerland,46.49536389,6.39171944,AUBONNE,1,0.028071551665329923,0.006512635937255144,0,0.003256317968627572
pl021,Auch,43.6454,0.58793,3036281,France,P,PPLA2,France,43.64766111,0.58515833,AUCH,1,0.33607919115891005,0.0835537261411746,0,0.0417768630705873
pl022,Augsburg,48.37154,10.89851,2954172,Germany,P,PPLA2,Germany,48.36545833,10.89476667,Augsburg,1,0.7306027183144911,0.18223479357552666,0,0.09111739678776333
pl023,Autun,46.95,4.3,3035883,France,P,PPLA3,France,46.94978333,4.29942222,AUTUN,1,0.05003878195908423,0.012007237867824053,0,0.006003618933912026
pl024,Auvernier,46.97545,6.87903,2661664,Switzerland,P,PPL,Switzerland,46.97550278,6.87915,AUVERNIER,1,0.0108320242090328,0.0022005611068475184,0,0.0011002805534237592
pl025,Auxerre,47.7996,3.57033,3035843,France,P,PPLA2,France,47.48318611,3.57440278,AUXERRE,1,35.184942379050135,1,0,0.5
pl026,Auxonne,47.19255,5.38726,3035828,France,P,PPL,France,47.19393611,5.38866389,AUXONNE,1,0.1871045283647582,0.04629111001485621,0,0.023145555007428105
pl027,Avenches,46.88004,7.04071,2661661,Switzerland,P,PPL,Switzerland,46.88004167,7.04074167,AVENCHES,1,0.0024142259571481813,9.504075187153252e-5,0,4.752037593576626e-5
pl028,Avignon,43.94834,4.80892,3035681,France,P,PPLA2,France,43.94861111,4.80596667,AVIGNON,1,0.23834698529680176,0.05910824258099281,0,0.029554121290496404
pl030,Bäch,47.20388,8.73224,2661652,Switzerland,P,PPL,Switzerland,47.20376111,8.73295278,BÄCH,1,0.05544602787262175,0.013359737178765011,0,0.006679868589382506
pl031,Saint-Étienne-de-Baïgorry,43.17533,-1.3467,2980278,France,P,PPL,France,43.17503611,-1.34738611,Saint-Etienne-de-Baïgorry,0.96,0.06452444422237104,0.015630496092601465,0.040000000000000036,0.02781524804630075
pl032,Basel,47.55839,7.57327,2661604,Switzerland,P,PPLA,Switzerland,47.57,7.58,Basel,1,1.386214275881074,0.3462210805009586,0,0.1731105402504793
pl033,Bamberg,49.89873,10.90067,2952984,Germany,P,PPLA3,Germany,49.89421667,10.88552778,BAMBERG,1,1.1950949604362247,0.2984169401714949,0,0.14920847008574745
pl034,Bar-le-Duc,48.77275,5.16108,3034911,France,P,PPLA2,France,48.77371944,5.160575,BAR-le-DUC,1,0.11397236783839969,0.027998767054849414,0,0.013999383527424707
pl035,Bar-sur-Aube,48.23333,4.71667,3034802,France,P,PPLA3,France,48.2348,4.70461389,BAR-sur-AUBE,1,0.9077819806865097,0.22655214738243154,0,0.11327607369121577
pl036,Bar-sur-Seine,48.11295,4.37656,3034800,France,P,PPL,France,48.11626389,4.37653333,BAR-sur-SEINE,1,0.36849307467999753,0.09166132025251963,0,0.04583066012625982
pl037,Bassecourt,47.33808,7.24373,2661601,Switzerland,P,PPL,Switzerland,47.337175,7.24591111,BASSECOURT,1,0.1927161953005457,0.04769474058488098,0,0.02384737029244049
pl038,Baiersdorf,49.65807,11.03594,2953194,Germany,P,PPL,Germany,49.65,11.016667,BAIERSDORF,1,1.6523191831372608,0.41278115737871673,0,0.20639057868935837
pl039,Bayonne,43.48333,-1.48333,3034475,France,P,PPLA3,France,43.49344167,-1.47453611,BAYONNE,1,1.3294719963522172,0.3320282926767794,0,0.1660141463383897
pl040,Beaune,47.03333,4.83333,3034126,France,P,PPLA3,France,47.02398056,4.83826944,BEAUNE,1,1.1049661383738796,0.27587326975508997,0,0.13793663487754498
pl041,Beaurepaire-en-Bresse,46.66851,5.3883,3034056,France,P,PPL,France,46.66781667,5.38690556,Beaurepaire-en-bresse,1,0.13139632146992605,0.032356971889126944,0,0.016178485944563472
pl042,Beauvais,49.43333,2.08333,3034006,France,P,PPLA2,France,49.42928889,2.08106944,BEAUVAIS,1,0.47816388247609304,0.11909297295453586,0,0.05954648647726793
pl043,Belfort,47.63883,6.85419,3033791,France,P,PPLA2,France,47.63883333,6.86222222,BELFORT,1,0.6018008343978506,0.15001793826124968,0,0.07500896913062484
pl045,Bellelay,47.26295,7.16766,2661570,Switzerland,P,PPL,Switzerland,47.26305556,7.16655,BELLELAY,1,0.08457976441574705,0.02064687729219367,0,0.010323438646096835
pl046,Bellinzona,46.19278,9.01703,2661567,Switzerland,P,PPLA,Switzerland,46.19328611,9.01801944,Bellinzona,1,0.09469630962902344,0.023177300477831245,0,0.011588650238915622
pl047,Bergamo,45.69601,9.66721,3182164,Italy,P,PPLA2,Italy,45.69473611,9.66870833,Bergamo,1,0.18332156685328233,0.04534488842268157,0,0.022672444211340785
pl048,Bergerac,44.85,0.48333,3033391,France,P,PPLA3,France,44.85327222,0.48295,BERGERAC,1,0.3650852655058922,0.09080893446620714,0,0.04540446723310357
pl049,Berlin,52.52437,13.41053,2950159,Germany,P,PPLC,Germany,52.52400833,13.41150833,BERLIN,1,0.07744772792086625,0.018862960932706067,0,0.009431480466353033
pl050,Bern,46.94809,7.44744,2661552,Switzerland,P,PPLC,Switzerland,46.94801944,7.44820556,Bern,1,0.05863973337408697,0.014158569811707756,0,0.007079284905853878
pl051,Burgdorf,47.05901,7.62786,2661321,Switzerland,P,PPL,Switzerland,47.05796389,7.62868333,Burgdorf,1,0.13198744379749305,0.03250482766515418,0,0.01625241383257709
pl052,Besançon,47.24878,6.01815,3033123,France,P,PPLA2,France,47.241225,6.02556389,BESANCON,0.875,1.0094233837428328,0.2519754275133723,0.125,0.18848771375668616
pl053,Bevaix,46.92958,6.8147,2661531,Switzerland,P,PPL,Switzerland,46.92982778,6.81483056,BEVAIX,1,0.029281282919154092,0.006815222635434463,0,0.0034076113177172315
pl054,Le Bied,46.95688,6.87206,9257728,Switzerland,P,PPL,Switzerland,47.00377222,6.75903333,"BIED, Le",0.125,10.0354252528997,1,0.875,0.9375
pl055,Biel/Bienne,47.13713,7.24608,2661513,Switzerland,P,PPLA2,Switzerland,47.14328333,7.24878889,BIENNE,0.5454545454545454,0.7142373363980453,0.17814136632638608,0.4545454545454546,0.31634341043592035
pl056,Bière,46.53761,6.33362,2661511,Switzerland,P,PPLA3,Switzerland,46.53824722,6.33255833,BIERE,0.8,0.10777196588092491,0.026447877838946282,0.19999999999999996,0.11322393891947312
pl057,Blamont,47.38513,6.848,3032430,France,P,PPL,France,47.38539444,6.849625,BLAMONT,1,0.12582417038626148,0.030963225308774944,0,0.015481612654387472
pl058,Blois,47.59432,1.32912,3032213,France,P,PPLA2,France,47.58594167,1.33009722,BLOIS,1,0.9345057522565946,0.23323648969129418,0,0.11661824484564709
pl059,'s-Hertogenbosch,51.69917,5.30417,2747351,Netherlands,P,PPLA,Netherlands,51.68922222,5.30421111,s'Hertogenbosch,0.875,1.106146296554242,0.27616845942304,0.125,0.20058422971152
pl060,Bolbec,49.57321,0.47339,3031871,France,P,PPL,France,49.57176667,0.47050833,BOLBEC,1,0.2625547544560418,0.06516326423727073,0,0.032581632118635365
pl061,Bologna,44.49381,11.33875,3181928,Italy,P,PPLA,Italy,44.49444444,11.34923056,Bologna,1,0.8342832029086608,0.2081681034737443,0,0.10408405173687214
pl062,Bonn,50.73438,7.09549,2946447,Germany,P,PPLA3,Germany,50.73269167,7.09630833,BONN,1,0.19636923297874148,0.04860846469168212,0,0.02430423234584106
pl063,Bordeaux,44.84044,-0.5805,3031582,France,P,PPLA,France,44.83736667,-0.57614444,BORDEAUX,1,0.48448521896355634,0.1206741111864989,0,0.06033705559324945
pl064,Boudry,46.94991,6.83757,2661429,Switzerland,P,PPL,Switzerland,46.95021667,6.83702778,BOUDRY,1,0.05344869533502387,0.01286014997226162,0,0.00643007498613081
pl065,Bouillon,49.79324,5.06703,2801283,Belgium,P,PPL,Belgium,49.79557222,5.06811389,BOUILLON,1,0.2707501835831943,0.06721316402444125,0,0.03360658201222062
pl066,Bourg-en-Bresse,46.20574,5.2258,3031009,France,P,PPLA2,France,46.204825,5.2255,BOURG-en-BRESSE,1,0.10432978017211994,0.02558689354606736,0,0.01279344677303368
pl067,Bourges,47.08333,2.4,3031005,France,P,PPLA2,France,47.08289167,2.39657778,BOURGES,1,0.2636633889242134,0.0654405638789485,0,0.03272028193947425
pl068,Le Bourgneuf,48.37629,-3.40174,3005077,France,P,PPL,France,48.00151667,2.08478889,Le Bourgneuf,1,408.76232295087755,1,0,0.5
pl069,Bourg-Saint-Andéol,44.37566,4.64273,3030953,France,P,PPL,France,44.37847222,4.63593611,BOURG St ANDEOL,0.6666666666666667,0.6239694377087156,0.1555629090618939,0.33333333333333326,0.24444812119761358
pl070,Brandenburg an der Havel,52.41667,12.55,2945358,Germany,P,PPL,Germany,52.45950833,13.0171,Brandenburg an der Havel,1,32.0192988214832,1,0,0.5
pl071,Les Brenets,47.06774,6.70478,2659938,Switzerland,P,PPL,Switzerland,47.06773611,6.70454167,"BRENETS, Les",0.25,0.01805595294510087,0.004007462215849739,0.75,0.37700373110792484
pl072,Brescia,45.53558,10.21472,3181554,Italy,P,PPLA2,Italy,45.53977222,10.22293889,BRESCIA,1,0.791875875738156,0.1975608772269483,0,0.09878043861347414
pl073,Wrocław,51.1,17.03333,3081368,Poland,P,PPLA,Poland,51.10788611,17.03853889,Wroclaw,0.8571428571428572,0.949322637830781,0.23694259587729297,0.1428571428571428,0.18989986936721787
pl074,La Brévine,46.98055,6.60639,2660078,Switzerland,P,PPL,Switzerland,46.97983333,6.60705278,"BRÉVINE, La",0.36363636363636365,0.09422645456171005,0.023059776942755378,0.6363636363636364,0.3297117066531959
pl075,Brienne-le-Château,48.39319,4.52637,3030093,France,P,PPL,France,48.39415278,4.52585833,Brienne-le-Château,1,0.11352657267037206,0.02788726155515156,0,0.01394363077757578
pl076,Brugg,47.48096,8.20869,2661374,Switzerland,P,PPLA2,Switzerland,47.48380556,8.20725556,Brugg,1,0.3342694908037693,0.08310107084817049,0,0.041550535424085246
pl077,Le Brouillet,46.94994,6.53404,8533454,Switzerland,P,PPL,Switzerland,46.95029722,6.53462222,"BROUILLET, Le",0.46153846153846156,0.05942092670589602,0.014353967516912583,0.5384615384615384,0.2764077529892255
pl078,Brussels,50.85045,4.34878,2800866,Belgium,P,PPLC,Belgium,50.85488333,4.37552222,Brussels,1,1.9409286694413155,0.48497024172940206,0,0.24248512086470103
pl079,Bulle,46.61797,7.0569,2661337,Switzerland,P,PPL,Switzerland,46.61799167,7.05715833,BULLE,1,0.019876623120544612,0.0044628613593533555,0,0.0022314306796766777
pl080,Bullet,46.83119,6.55403,2661336,Switzerland,P,PPL,Switzerland,46.83092222,6.55452778,BULLET,1,0.04817259947850844,0.011540454858612326,0,0.005770227429306163
pl081,Cadiz,36.52672,-6.2891,2520600,Spain,P,PPLA2,Spain,36.52994167,-6.29240833,Cadiz,1,0.46445038841977615,0.11566285500570607,0,0.057831427502853035
pl082,Caen,49.18585,-0.35912,3029241,France,P,PPLA2,France,49.18476667,-0.36016111,CAEN,1,0.14225405761855822,0.03507278709232278,0,0.01753639354616139
pl083,Cambrai,50.16667,3.23333,3029030,France,P,PPLA3,France,50.17535,3.23436667,Cambrai,1,0.9679917638245609,0.24161225219516855,0,0.12080612609758427
pl084,Karlsruhe,49.00937,8.40444,2892794,Germany,P,PPLA2,Germany,49.00808611,8.40375556,Karlsruhe,1,0.15123873485518827,0.037320099303728975,0,0.018660049651864487
pl085,Kassel,51.31667,9.5,2892518,Germany,P,PPLA2,Germany,51.31892778,9.49601111,Kassel,1,0.374000357710501,0.09303884156799459,0,0.046519420783997296
pl086,Le Cateau-Cambrésis,50.1,3.55,3004835,France,P,PPL,France,50.10543611,3.54231389,"CATEAU-CAMBRÉSIS, Le",0.65,0.8160216998719078,0.20360040474709318,0.35,0.2768002023735466
pl087,Erlach,47.0422,7.09728,2660874,Switzerland,P,PPL,Switzerland,47.04165,7.09614444,Erlach,1,0.10556678362083076,0.02589630176214726,0,0.01294815088107363
pl088,Cesse,49.51284,5.15928,3027787,France,P,PPL,France,49.51170556,5.15841389,CESSE,1,0.14079202394802176,0.03470709269565729,0,0.017353546347828645
pl089,Sète,43.4028,3.69278,2974733,France,P,PPL,France,43.40170278,3.69660556,SÈTE,1,0.3322708992959294,0.0826011687389584,0,0.0413005843694792
pl090,Chalon-sur-Saône,46.78333,4.85,3027484,France,P,PPLA3,France,46.78421667,4.85294722,CHALON-sur-Saône,1,0.24510825523983654,0.06079942013889636,0,0.03039971006944818
pl091,Châlons-en-Champagne,48.95393,4.36724,3027487,France,P,PPLA2,France,48.96329167,4.36385278,CHÂLONS en CHAMPAGNE,0.9,1.0699432068392436,0.26711308175455234,0.09999999999999998,0.18355654087727616
pl093,Chambéry,45.56465,5.92645,3027422,France,P,PPLA2,France,45.56670278,5.92098611,CHAMBÉRY,1,0.4827220723225025,0.1202331002439148,0,0.0601165501219574
pl095,Charmey,46.61957,7.16486,2661211,Switzerland,P,PPL,Switzerland,46.61932778,7.16374167,CHARMEY,1,0.08955650312400215,0.021891695038839237,0,0.010945847519419618
pl096,Chartres,48.44685,1.48925,3026467,France,P,PPLA2,France,48.44440556,1.48416667,CHARTRES,1,0.46309962169670543,0.11532499149969809,0,0.057662495749849045
pl097,Château-d'Oex,46.47455,7.13155,2661205,Switzerland,P,PPL,Switzerland,46.47329722,7.12855556,CHÂTEAU d'OEX,0.9230769230769231,0.26830552263721247,0.066601687813114,0.07692307692307687,0.07176238236809543
pl098,Châteaudun,48.08333,1.33333,3026285,France,P,PPLA3,France,48.06962222,1.32939167,Châteaudun,1,1.5520646102303943,0.38770476119785413,0,0.19385238059892707
pl099,Châtillon-sur-Seine,47.85851,4.57375,3026046,France,P,PPL,France,47.85760556,4.57284444,CHÂTILLON sur SEINE,0.8947368421052632,0.12115621771383764,0.029795643350434175,0.10526315789473684,0.0675294006225855
pl102,La Chaux-de-Fonds,47.09993,6.82586,2660076,Switzerland,P,PPLA2,Switzerland,47.10291667,6.83156667,"CHAUX-de-FONDS, La",0.6111111111111112,0.544853909448994,0.13577396305000453,0.38888888888888884,0.2623314259694467
pl103,La Chaux-du-Milieu,47.01257,6.70724,8533452,Switzerland,P,PPL,Switzerland,47.06793611,6.70252778,CHAUX-de-MILIEU,0.7777777777777778,6.166777408946193,1,0.2222222222222222,0.6111111111111112
pl104,Chézard-Saint-Martin,47.06629,6.93332,2661178,Switzerland,P,PPL,Switzerland,47.06730833,6.927625,Chezard-Saint-Martin,0.95,0.44595382680903856,0.11103636173476598,0.050000000000000044,0.08051818086738302
pl105,Clairvaux-les-Lacs,46.57473,5.74825,3024796,France,P,PPL,France,46.57550556,5.75010833,Clairvaux-les-Lacs,1,0.16617222256836692,0.04105537085693374,0,0.02052768542846687
pl106,Clarens,46.44055,6.89233,6692189,Switzerland,P,PPL,Switzerland,46.41770556,6.2508,CLARENS,1,49.233097891611486,1,0,0.5
pl107,Clavaleyres,46.8991,7.09282,8533365,Switzerland,P,PPL,Switzerland,46.89999444,7.09183333,CLAVALEYRES,1,0.12454477229960431,0.03064321304036843,0,0.015321606520184215
pl108,Clermont-Ferrand,45.77966,3.08628,3024635,France,P,PPLA2,France,45.77716667,3.08241667,CLERMONT-FERRAND,1,0.40820209232010174,0.10159362587633537,0,0.050796812938167686
pl109,Kleve,51.78826,6.13865,2887835,Germany,P,PPLA3,Germany,51.78478333,6.13072222,CLEVES,0.6666666666666667,0.6684391992203621,0.1666860062474004,0.33333333333333326,0.2500096697903668
pl110,Koblenz,50.35357,7.57883,2886946,Germany,P,PPLA3,Germany,50.35671667,7.59948611,Koblenz,1,1.5066469220384833,0.37634456176059494,0,0.18817228088029747
pl111,Chur,46.84986,9.53287,2661169,Switzerland,P,PPLA,Switzerland,46.84943611,9.53073611,Chur,1,0.16898447833198574,0.04175879253283008,0,0.02087939626641504
pl112,Colmar,48.08078,7.35584,3024297,France,P,PPLA2,France,48.08067778,7.35997222,COLMAR,1,0.3071823433987964,0.07632583835710473,0,0.038162919178552364
pl113,Köln,50.93333,6.95,2886242,Germany,P,PPLA2,Germany,50.94066389,6.95991111,COLOGNE,0.2857142857142857,1.071142977862223,0.2674131771280222,0.7142857142857143,0.4908494457068683
pl114,Colombier,46.96628,6.86478,2661143,Switzerland,P,PPL,Switzerland,46.96393056,6.86063611,COLOMBIER,1,0.4088178010735915,0.10174763138637707,0,0.05087381569318854
pl115,Como,45.80819,9.0832,3178229,Italy,P,PPLA2,Italy,45.81196389,9.08545556,Como,1,0.45459690616401793,0.11319823102255837,0,0.056599115511279184
pl116,Compiègne,49.41794,2.82606,3024066,France,P,PPLA3,France,49.41576944,2.82247778,COMPIÈGNE,1,0.35411997463483946,0.0880662169008313,0,0.04403310845041565
pl117,Concise,46.85027,6.71968,2661133,Switzerland,P,PPL,Switzerland,46.8519,6.720125,CONCISE,1,0.1843798066394231,0.04560958298336031,0,0.022804791491680156
pl118,Condé-sur-Noireau,48.84881,-0.55214,3023953,France,P,PPL,France,48.85166667,-0.54734167,CONDÉ sur NOIREAU,0.8823529411764706,0.4734607241009572,0.11791658509215067,0.11764705882352944,0.11778182195784005
pl119,Copenhagen,55.67594,12.56553,2618425,Denmark,P,PPLC,Denmark,55.67629444,12.56811667,Copenhagen,1,0.16690301530014773,0.04123816200088739,0,0.020619081000443695
pl120,Coppet,46.31682,6.19114,2661124,Switzerland,P,PPL,Switzerland,46.31555278,6.19237222,COPPET,1,0.16973759974772962,0.041947168688110596,0,0.020973584344055298
pl121,Corcelles,46.98642,6.87751,7669508,Switzerland,P,PPL,Switzerland,46.98303889,6.86246111,CORCELLES,1,1.2018716992781118,0.3001119869218438,0,0.1500559934609219
pl122,Corgémont,47.19457,7.14517,2661117,Switzerland,P,PPL,Switzerland,47.19469167,7.14592778,CORGEMONT,0.8888888888888888,0.05883307720439323,0.014206930363723565,0.11111111111111116,0.06265902073741736
pl123,Cornaux,47.0396,7.01872,2661114,Switzerland,P,PPL,Switzerland,47.03858056,7.01773611,CORNAUX,1,0.13567856039906318,0.03342807634665539,0,0.016714038173327696
pl124,Corseaux,46.47222,6.82942,8533404,Switzerland,P,PPL,Switzerland,46.47189167,6.83364167,CORSEAUX,1,0.3253539860859605,0.08087106056560901,0,0.040435530282804506
pl125,Cortaillod,46.94306,6.8444,2661110,Switzerland,P,PPL,Switzerland,46.94357778,6.84626944,CORTAILLOD,1,0.1531528193952295,0.03779886392122255,0,0.018899431960611276
pl126,Courgevaux,46.90648,7.11215,2661098,Switzerland,P,PPL,Switzerland,46.90644167,7.11211111,COURGEVAUX,1,0.005185926094827838,7.883183623758821e-4,0,3.9415918118794105e-4
pl127,Courtelary,47.17822,7.07236,2661092,Switzerland,P,PPL,Switzerland,47.17833333,7.07290278,COURTELARY,1,0.04291591571474315,0.010225615237479613,0,0.005112807618739806
pl128,Couvet,46.92525,6.6327,2661086,Switzerland,P,PPL,Switzerland,46.92651111,6.63264722,COUVET,1,0.14028630327707356,0.03458059819736314,0,0.01729029909868157
pl129,Kraków,50.06143,19.93658,3094802,Poland,P,PPLA,Poland,50.06224167,19.94506111,Kracow,0.6666666666666667,0.612095470637652,0.152592906857714,0.33333333333333326,0.24296312009552362
pl130,Craponne-sur-Arzon,45.33135,3.84802,3022679,France,P,PPL,France,45.32990278,3.84541389,Craponne-sur-Arzon,1,0.25961477045824916,0.0644278942550702,0,0.0322139471275351
pl131,Cremona,45.13325,10.02129,3177838,Italy,P,PPLA2,Italy,45.13349722,10.02613611,Cremona,1,0.3811382049310445,0.09482421134805535,0,0.04741210567402768
pl132,Darmstadt,49.87167,8.65027,2938913,Germany,P,PPLA2,Germany,49.872425,8.65085833,DARMSTADT,1,0.09394490885695593,0.022989354702345526,0,0.011494677351172763
pl133,Delémont,47.36493,7.34453,2661035,Switzerland,P,PPLA,Switzerland,47.36520556,7.34358333,DELEMONT,0.875,0.07760374160978369,0.01890198420076752,0.125,0.07195099210038376
pl134,Dessau,51.83864,12.24555,2937959,Germany,P,PPL,Germany,51.83886944,12.24513611,DESSAU,1,0.03820352090216186,0.00904691709080548,0,0.00452345854540274
pl135,Deutz,50.93463,6.97495,2937790,Germany,P,PPLX,Germany,50.937,6.97787778,DEUTZ,1,0.33397640394113604,0.08302776185018967,0,0.04151388092509484
pl136,Zweibrücken,49.24686,7.36977,2803620,Germany,P,PPLA3,Germany,49.250475,7.36118889,Zweibrücken,1,0.7413094552231468,0.18491283976076284,0,0.09245641988038142
pl137,Dieppe,49.93333,1.08333,3021411,France,P,PPLA3,France,49.92749167,1.08786944,DIEPPE,1,0.7259663408073262,0.18107510942504199,0,0.09053755471252099
pl138,Dijon,47.31667,5.01667,3021372,France,P,PPLA,France,47.32721389,5.04398611,DIJON,1,2.3693984911175363,0.5921422009564168,0,0.2960711004782084
pl139,Divonne-les-Bains,46.35938,6.13574,3021296,France,P,PPL,France,46.35743889,6.14314722,Divonne-les-Bains,1,0.6080342089412089,0.15157707481792487,0,0.07578853740896244
pl140,Dole,47.1,5.5,3021263,France,P,PPLA3,France,47.08911389,5.487875,DÔLE,0.75,1.5191259923087672,0.3794659167371621,0.25,0.31473295836858106
pl141,Dordrecht,51.81,4.67361,2756669,Netherlands,P,PPL,Netherlands,51.76880278,4.75250833,Dordrecht,1,7.101630124256364,1,0,0.5
pl142,Dresden,51.05089,13.73832,2935022,Germany,P,PPLA,Germany,51.05095833,13.73365833,Dresden,1,0.3259411770521936,0.08101793300121116,0,0.04050896650060558
pl143,Dublin,53.33306,-6.24889,2964574,Ireland,P,PPLC,Ireland,53.33,-6.25,DUBLIN,1,0.3481484922597515,0.08657258670040292,0,0.04328629335020146
pl144,Dunkerque,51.03297,2.377,3020686,France,P,PPLA3,France,51.03429167,2.37681944,DUNKERQUE,1,0.14750436286912424,0.03638603127377238,0,0.01819301563688619
pl145,Echallens,46.6413,6.63317,2660950,Switzerland,P,PPLA2,Switzerland,46.64108333,6.63443333,Echallens,1,0.09940950934361192,0.02435619995239531,0,0.012178099976197655
pl146,Edinburgh,55.95206,-3.19648,2650225,United Kingdom,P,PPLA,United Kingdom,55.95025278,-3.18760556,Edinburgh,1,0.5879147992793144,0.1465446630986567,0,0.07327233154932836
pl147,Eglisau,47.57738,8.52122,2660934,Switzerland,P,PPL,Switzerland,47.57616944,8.52208333,EGLISAU,1,0.1493762105796215,0.036854231311114066,0,0.018427115655557033
pl148,Épinal,48.18324,6.45304,3020035,France,P,PPLA2,France,48.174775,6.44998333,EPINAL,0.8333333333333334,0.9681656299131548,0.2416557408340763,0.16666666666666663,0.20416120375037144
pl149,Erfurt,50.9787,11.03283,2929670,Germany,P,PPLA,Germany,50.97373333,11.02239722,ERFURT,1,0.9157130159764649,0.22853591507789692,0,0.11426795753894846
pl150,Erlangen,49.59099,11.00783,2929567,Germany,P,PPLA3,Germany,49.59993611,11.0063,Erlangen,1,1.0008555478076662,0.2498323786519258,0,0.1249161893259629
pl151,Estavayer-le-Lac,46.84876,6.8465,2660851,Switzerland,P,PPL,Switzerland,46.84878889,6.84644722,Estavayer-le-lac,1,0.005141092378194768,7.7710423011285e-4,0,3.88552115056425e-4
pl152,Falaise,48.89217,-0.19527,3019113,France,P,PPL,France,48.89643889,-0.19570833,FALAISE,1,0.4757592843785533,0.11849151755154222,0,0.05924575877577111
pl153,Ferney-Voltaire,46.25858,6.11063,3018679,France,P,PPL,France,46.25676667,6.10966111,FERNEY,0.4,0.2149527703691832,0.05325671297136406,0.6,0.326628356485682
pl154,La Ferrière,47.14303,6.8922,2660062,Switzerland,P,PPL,Switzerland,47.14304722,6.89281111,"FERRIERE, La",0.33333333333333337,0.04625881153719717,0.01106176442853029,0.6666666666666666,0.33886421554759844
pl155,Fiez,46.82823,6.62388,2660778,Switzerland,P,PPL,Switzerland,46.82629167,6.62405,FIEZ,1,0.215920166848453,0.053498685149537685,0,0.026749342574768843
pl156,Fleurier,46.90224,6.58253,2660758,Switzerland,P,PPL,Switzerland,46.90218056,6.58238611,FLEURIER,1,0.012774552228616762,0.0026864402123997957,0,0.0013432201061998978
pl157,Florence,43.77925,11.24626,3176959,Italy,P,PPLA,Italy,43.76873333,11.2569,FLORENCE,1,1.448212446818659,0.3617285097567192,0,0.1808642548783596
pl158,Fontainebleau,48.4,2.7,3018074,France,P,PPLA3,France,48.4059,2.70205556,FONTAINEBLEAU,1,0.673370436374335,0.1679194428174179,0,0.08395972140870896
pl159,Fontaines,47.04364,6.90348,8533443,Switzerland,P,PPL,Switzerland,47.04222778,6.89983333,FONTAINES,1,0.3178251441582584,0.0789878923719992,0,0.0394939461859996
pl161,Forges-les-Eaux,49.61391,1.54449,3017727,France,P,PPL,France,49.61266667,1.54691389,FORGES-les-EAUX,1,0.22273638424953016,0.05520360656158226,0,0.02760180328079113
pl162,Frankfurt am Main,50.11552,8.68417,2925533,Germany,P,PPLA3,Germany,50.11152778,8.68058333,Frankfurt-on-Main,0.7647058823529411,0.5123167463625059,0.12763553336544464,0.23529411764705888,0.18146482550625176
pl163,Frankfurt (Oder),52.34714,14.55062,2925535,Germany,P,PPL,Germany,52.34714444,14.55046667,Frankfurt-on-the-Oder,0.5714285714285714,0.010426833349604115,0.0020992118493993127,0.4285714285714286,0.21533532021041396
pl164,Franconville,48.98333,2.23333,3017341,France,P,PPL,France,48.98353333,2.22855556,FRANCONVILLE,1,0.3491461362168783,0.0868221245956927,0,0.04341106229784635
pl165,Fribourg,46.80237,7.15128,2660718,Switzerland,P,PPLA,Switzerland,46.80250278,7.15128056,FRIBOURG,1,0.014764523885327884,0.0031841862623354176,0,0.0015920931311677088
pl166,Freiburg,47.9959,7.85222,2925177,Germany,P,PPLA2,Germany,47.99718611,7.85376667,Freiburg im Breisgau,0.4,0.183565636936378,0.04540593699056375,0.6,0.32270296849528185
pl167,Frienisberg,47.02866,7.33197,7669581,Switzerland,P,PPL,Switzerland,47.02700833,7.33134167,FRIENISBERG,1,0.18973164905172796,0.046948224371351384,0,0.023474112185675692
pl168,Fürth,49.47593,10.98856,2923544,Germany,P,PPL,Germany,49.47724722,10.98970556,FÜRTH,1,0.16823564411986378,0.04157148872381183,0,0.020785744361905913
pl169,Ganges,43.9338,3.70784,3016714,France,P,PPL,France,43.93602778,3.70938611,GANGES,1,0.27693248542888044,0.06875952590995965,0,0.034379762954979826
pl170,Genoa,44.40478,8.94439,3176219,Italy,P,PPLA,Italy,44.40706111,8.93398889,Genoa,1,0.864297491361791,0.21567549357590526,0,0.10783774678795263
pl171,Genève,46.20222,6.14569,2660646,Switzerland,P,PPLA,Switzerland,46.21,6.15,GENÈVE,1,0.9264981724960325,0.23123357614128334,0,0.11561678807064167
pl172,Gland,46.42082,6.2701,2660600,Switzerland,P,PPL,Switzerland,46.42065833,6.26930833,GLAND,1,0.06329064531533703,0.015321889419576767,0,0.007660944709788384
pl174,Ligerz,47.08368,7.13476,2659890,Switzerland,P,PPL,Switzerland,47.08481111,7.13712778,Ligerz,1,0.21899579530396576,0.05426798350091783,0,0.027133991750458913
pl175,Göttingen,51.53443,9.93228,2918632,Germany,P,PPLA3,Germany,51.53263889,9.92816111,Göttingen,1,0.3476127119045697,0.0864385734572869,0,0.04321928672864345
pl176,Grand’Combe-des-Bois,47.13737,6.79102,3015272,France,P,PPL,France,47.13760278,6.78981111,GRANDCOMBE des BOIS,0.85,0.09503262617514831,0.02326142239574756,0.15000000000000002,0.08663071119787379
pl177,Grandcour,46.87185,6.9284,2660537,Switzerland,P,PPL,Switzerland,46.87184167,6.92829722,GRANDCOUR,1,0.00786768576731334,0.0014590994156409437,0,7.295497078204718e-4
pl178,Grandson,46.80946,6.646,2660529,Switzerland,P,PPL,Switzerland,46.80937222,6.64595556,GRANDSON,1,0.010330037625155235,0.0020750006053182214,0,0.0010375003026591107
pl179,Granges,46.76233,6.88808,2660526,Switzerland,P,PPL,Switzerland,46.75898889,6.90162222,GRANGE MARNAND,0.4285714285714286,1.0964232734235495,0.2737364668163044,0.5714285714285714,0.42258251912243794
pl180,Greng,46.91337,7.09397,8533520,Switzerland,P,PPL,Switzerland,46.91121667,7.09427778,GRENG,1,0.24057800522379957,0.05966628136121652,0,0.02983314068060826
pl181,Grenoble,45.17155,5.72239,3014728,France,P,PPLA2,France,45.19425833,5.73161389,GRENOBLE,1,2.626500253036031,0.6564503462482553,0,0.32822517312412763
pl182,Guadalajara,40.62862,-3.16185,3121070,Spain,P,PPLA2,Spain,40.62981667,-3.16649167,Guadalajara,1,0.4136953157768199,0.10296763050990594,0,0.05148381525495297
pl183,Guéret,46.17234,1.87456,3014383,France,P,PPLA2,France,46.169225,1.868575,GUÉRET,1,0.5765174437014685,0.1436938743954847,0,0.07184693719774235
pl184,Gueugnon,46.60357,4.06286,3014334,France,P,PPL,France,46.60019167,4.05945833,GUEUGNON,1,0.4567858405522737,0.11374574306457573,0,0.056872871532287865
pl185,Guévaux,46.9383,7.05673,2660454,Switzerland,P,PPL,Switzerland,46.93801944,7.05629444,GUÉVAUX,1,0.04546194869677587,0.010862447352921427,0,0.005431223676460714
pl186,Guise,49.90055,3.62801,3014195,France,P,PPL,France,49.899675,3.62778333,GUISE,1,0.09864073824359584,0.024163909385317543,0,0.012081954692658771
pl187,Hamburg,53.57532,10.01534,2911298,Germany,P,PPLA,Germany,53.55340833,9.99219722,Hamburg,1,2.876156884251744,0.71889626180126,0,0.35944813090063
pl188,Hanau am Main,50.13423,8.91418,2911007,Germany,P,PPLA4,Germany,50.13540833,8.91512778,HANAU,0.3846153846153846,0.14741324883401355,0.03636324117476916,0.6153846153846154,0.3258739282796923
pl189,Le Havre,49.4938,0.10767,3003796,France,P,PPLA3,France,49.49259167,0.10650278,"HAVRE, Le",0.2222222222222222,0.15861788112597705,0.039165824540968106,0.7777777777777778,0.4084718011593729
pl190,The Hague,52.07667,4.29861,2747373,Netherlands,P,PPLG,Netherlands,52.07825,4.31365556,The Hague,1,1.0431139080300345,0.26040234421224123,0,0.13020117210612062
pl191,Herisau,47.38615,9.27916,2660365,Switzerland,P,PPLA,Switzerland,47.38590833,9.27888056,HÉRISAU,0.8571428571428572,0.03412790512328503,0.008027494704486675,0.1428571428571428,0.07544231878081474
pl192,Höfen,46.72103,7.56439,11791359,Switzerland,P,PPL,Switzerland,46.720825,7.56250278,HÖFEN,1,0.14565743102637216,0.03592406337280764,0,0.01796203168640382
pl193,Hombourg,47.7593,7.50691,3013199,France,P,PPL,France,47.75981111,7.50455278,HOMBOURG,1,0.18514109863365114,0.0458000028226061,0,0.02290000141130305
pl194,Houtaud,46.91603,6.31066,3013053,France,P,PPL,France,46.91613056,6.310625,Houtaud,1,0.011493424005298463,0.0023659951897447348,0,0.0011829975948723674
pl196,Kehl,48.57297,7.81523,2891951,Germany,P,PPL,Germany,48.57247222,7.81326667,KEHL,1,0.15469206029750246,0.038183869947022914,0,0.019091934973511457
pl197,Kilchberg,47.32438,8.54548,2660161,Switzerland,P,PPL,Switzerland,47.32149722,8.54664722,KILCHBERG,1,0.33240488909564636,0.08263468323315527,0,0.04131734161657764
pl199,Klagenfurt am Wörthersee,46.62472,14.30528,2774326,Austria,P,PPLA,Austria,46.62364167,14.30768333,KLAGENFURTH,0.45833333333333337,0.21923023638360054,0.054326623593070555,0.5416666666666666,0.29799664512986856
pl200,Kaliningrad,54.70649,20.51095,554234,Russia,P,PPLA,Russia,54.70717222,20.46995,Kaliningrad,1,2.63509676652326,0.6586005681456657,0,0.32930028407283285
pl201,L'Aigle,48.76216,0.62746,3008686,France,P,PPL,France,48.76485278,0.62834722,LAIGLE,0.8571428571428572,0.30640381709238934,0.07613110774751125,0.1428571428571428,0.10949412530232702
pl202,Landau in der Pfalz,49.19844,8.11692,2881646,Germany,P,PPLA3,Germany,49.19350833,8.11288056,LANDAU,0.3157894736842105,0.6219884505583382,0.1550674102814222,0.6842105263157895,0.41963896829860586
pl203,Le Landeron,47.05702,7.07052,2659963,Switzerland,P,PPL,Switzerland,47.05550833,7.06685,LANDERON,0.7272727272727273,0.32488393640138774,0.08075348835146187,0.2727272727272727,0.1767403805393673
pl204,Langres,47.86667,5.33333,3007680,France,P,PPLA3,France,47.862975,5.33411111,LANGRES,1,0.4149766541435829,0.10328812809515363,0,0.051644064047576814
pl205,Laon,49.5631,3.62714,3007477,France,P,PPLA2,France,49.56474722,3.62424444,LAON,1,0.27777454225786097,0.06897014723164173,0,0.034485073615820865
pl206,Lausanne,46.516,6.63282,2659994,Switzerland,P,PPLA,Switzerland,46.51958889,6.63211667,LAUSANNE,1,0.4026787281776011,0.10021208223725185,0,0.050106041118625926
pl207,Lausen,47.47139,7.7603,2659993,Switzerland,P,PPL,Switzerland,47.46887778,7.76554444,LAUSEN,1,0.48314208909774375,0.1203381578662573,0,0.06016907893312865
pl208,Leipzig,51.33962,12.37129,2879139,Germany,P,PPLA3,Germany,51.34151389,12.38670278,LEIPZIG,1,1.091123232863972,0.27241078248098666,0,0.13620539124049333
pl209,Lenzburg,47.38853,8.17503,2659952,Switzerland,P,PPLA2,Switzerland,47.38781667,8.179825,Lenzburg,1,0.36958925442940993,0.09193550463019626,0,0.04596775231509813
pl210,Leiden,52.15833,4.49306,2751773,Netherlands,P,PPL,Netherlands,52.16108611,4.49015278,Leiden,1,0.3650329739000781,0.09079585491296276,0,0.04539792745648138
pl211,Liège,50.63373,5.56749,2792413,Belgium,P,PPL,Belgium,50.633333,5.566667,LIÈGE,1,0.0729242421734998,0.017731514082647445,0,0.008865757041323722
pl212,Liestal,47.48455,7.73446,2659891,Switzerland,P,PPLA,Switzerland,47.48255278,7.73660833,LIESTAL,1,0.27455787561047096,0.06816557139142891,0,0.034082785695714456
pl213,Lignières,47.08331,7.06592,2659889,Switzerland,P,PPL,Switzerland,47.08288611,7.06460278,LIGNIÈRES,1,0.11031247490932981,0.0270833282633027,0,0.01354166413165135
pl214,Lille,50.63297,3.05858,2998324,France,P,PPLA,France,50.63718333,3.06301667,LILLE,1,0.5633830280024706,0.14040859969805838,0,0.07020429984902919
pl215,Limoges,45.83153,1.25781,2998286,France,P,PPLA2,France,45.82852222,1.26174722,LIMOGES,1,0.4526747277813501,0.11271744191482515,0,0.056358720957412574
pl216,Lisbon,38.71667,-9.13333,2267057,Portugal,P,PPLC,Portugal,38.72,-9.14,Lisbon,1,0.6870004805325274,0.171328687676413,0,0.0856643438382065
pl217,Lisieux,49.1466,0.22925,2998150,France,P,PPLA3,France,49.14658889,0.22927222,LISIEUX,1,0.0020342562869090585,0,0,0
pl218,Livorno,43.54427,10.32615,3174659,Italy,P,PPLA2,Italy,43.551875,10.30801111,Livorno,1,1.6888447500437929,0.42191719536602806,0,0.21095859768301403
pl219,Locarno,46.17086,8.79953,2659869,Switzerland,P,PPLA2,Switzerland,46.170475,8.794525,LOCARNO,1,0.3877747942451299,0.09648420288863362,0,0.04824210144431681
pl220,Le Locle,47.05619,6.74913,2659960,Switzerland,P,PPLA2,Switzerland,47.0563,6.74685,"LOCLE, Le",0.4444444444444444,0.17315369851992737,0.04280162792843042,0.5555555555555556,0.299178591741993
pl221,London,51.50853,-0.12574,2643743,United Kingdom,P,PPLC,United Kingdom,51.50793056,-0.12805556,London,1,0.173564332159895,0.04290433857336612,0,0.02145216928668306
pl222,Longchaumois,46.46228,5.93052,2997759,France,P,PPL,France,46.46169722,5.93265556,LONGCHAUMOIS,1,0.1759418688011637,0.04349902516992024,0,0.02174951258496012
pl223,Longwy,49.5217,5.76192,2997638,France,P,PPL,France,49.51452778,5.76926389,LONGWY,1,0.9576445858049618,0.23902414147014037,0,0.11951207073507018
pl224,Loudun,47.00788,0.08296,2997457,France,P,PPL,France,47.0092,0.08190278,LOUDUN,1,0.16724053273117098,0.04132258429278771,0,0.020661292146393857
pl225,Leuven,50.87959,4.70093,2792482,Belgium,P,PPL,Belgium,50.87926667,4.70213889,Leuven,1,0.09211992430263524,0.02253287641530904,0,0.01126643820765452
pl226,Lübeck,53.86893,10.68729,2875601,Germany,P,PPLA3,Germany,53.86956389,10.68757778,LUBECK,0.8333333333333334,0.07296701344688598,0.017742212341744196,0.16666666666666663,0.09220443950420541
pl227,Lucens,46.70854,6.83931,2659840,Switzerland,P,PPL,Switzerland,46.70971389,6.83981111,LUCENS,1,0.13600767667764224,0.03351039728177011,0,0.016755198640885056
pl228,Luzern,47.05048,8.30635,2659811,Switzerland,P,PPLA,Switzerland,47.04565556,8.30823611,Luzern,1,0.5551609086279019,0.1383520239538819,0,0.06917601197694095
pl229,Lugano,46.01008,8.96004,2659836,Switzerland,P,PPLA2,Switzerland,46.00359167,8.95339722,LUGANO,1,0.8852850335547736,0.22092504885936062,0,0.11046252442968031
pl230,Lunéville,48.6,6.5,2997110,France,P,PPLA3,France,48.59135,6.49081944,LUNÉVILLE,1,1.175138592741533,0.29342530968389663,0,0.14671265484194831
pl231,Luxembourg,49.61167,6.13,2960316,Luxembourg,P,PPLC,Luxembourg,49.61999722,6.12,LUXEMBOURG,1,1.173205308675617,0.292941742742645,0,0.1464708713713225
pl232,Luxeuil-les-Bains,47.8171,6.365,2996995,France,P,PPL,France,47.81784444,6.38013611,Luxeuil-les-Bains,1,1.1331923185565076,0.2829334053320429,0,0.14146670266602146
pl233,Lyon,45.74846,4.84671,2996944,France,P,PPLA,France,45.75782222,4.83509722,LYON,1,1.37678464267188,0.34386247269547093,0,0.17193123634773547
pl234,Mâcon,46.31407,4.82823,2996882,France,P,PPLA2,France,46.306325,4.82918611,MÂCON,1,0.8643301269963385,0.21568365663598119,0,0.10784182831799059
pl235,Madrid,40.4165,-3.70256,3117735,Spain,P,PPLC,Spain,40.41671111,-3.70326667,MADRID,1,0.06426612081037651,0.015565882379389754,0,0.007782941189694877
pl236,Maastricht,50.84833,5.68889,2751283,Netherlands,P,PPLA,Netherlands,50.85774167,5.70087222,Maastricht,1,1.3426594222210577,0.3353268266598627,0,0.16766341332993134
pl237,Maienfeld,47.00472,9.53115,2659787,Switzerland,P,PPL,Switzerland,47.00768333,9.53113056,MAIENFELD,1,0.3295105590656415,0.08191073255034707,0,0.04095536627517354
pl238,Mechelen,51.02574,4.47762,2791537,Belgium,P,PPL,Belgium,51.02891944,4.47807222,Mechelen,1,0.3549493850538906,0.08827367501133548,0,0.04413683750566774
pl239,Mandeure,47.44921,6.80762,2996251,France,P,PPL,France,47.4525,6.807475,MANDEURE,1,0.36599374295347886,0.0910361693916227,0,0.04551808469581135
pl240,Mannheim,49.4891,8.46694,2873891,Germany,P,PPLA3,Germany,49.48454167,8.47671111,MANNHEIM,1,0.868955453239545,0.21684057656469244,0,0.10842028828234622
pl241,Le Mans,48.00039,0.20471,3003603,France,P,PPLA2,France,48.00768611,0.19864444,"MANS, Le",0.125,0.9283497683126293,0.23169671062899336,0.875,0.5533483553144967
pl242,Mantes-la-Jolie,48.98333,1.71667,2996148,France,P,PPLA3,France,48.99035556,1.71936389,Mantes-la-Jolie,1,0.8055584948465713,0.200983272511333,0,0.1004916362556665
pl243,Marin-Epagnier,47.01017,6.99941,8468977,Switzerland,P,PPL,Switzerland,47.00925833,7.001675,Marin-Epagnier,1,0.19942225947944953,0.049372109679263365,0,0.024686054839631683
pl244,Marmoutier,48.69005,7.38195,2995622,France,P,PPL,France,48.69104167,7.38090278,MARMOUTIER,1,0.13441717157226646,0.03311256868409468,0,0.01655628434204734
pl245,Marseille,43.29695,5.38107,2995469,France,P,PPLA,France,43.29834444,5.38322222,MARSEILLE,1,0.23319231316643976,0.05781891884467319,0,0.028909459422336595
pl246,Le Mas-d’Azil,43.08033,1.36295,3003544,France,P,PPL,France,43.01285,1.42743889,"MAS d'AZIL, Le",0.3571428571428571,9.152251933304571,1,0.6428571428571429,0.8214285714285714
pl247,Maubeuge,50.27875,3.97267,2995150,France,P,PPL,France,50.2787,3.972825,MAUBEUGE,1,0.012337904511387977,0.0025772227390096283,0,0.0012886113695048142
pl248,Mainz,49.98419,8.2791,2874225,Germany,P,PPLA,Germany,49.99572778,8.267675,Mainz,1,1.5208726685624439,0.3799028079877746,0,0.1899514039938873
pl249,Meaux,48.96014,2.87885,2994798,France,P,PPLA3,France,48.95769444,2.88181944,MEAUX,1,0.34777940167521115,0.08648026710383791,0,0.043240133551918955
pl251,Melun,48.5457,2.65356,2994651,France,P,PPLA2,France,48.54145833,2.66029167,MELUN,1,0.684133237868884,0.17061151228086285,0,0.08530575614043143
pl252,Mende,44.51849,3.50372,2994617,France,P,PPLA2,France,44.51800556,3.498525,MENDE,1,0.4153931067940203,0.10339229423291812,0,0.05169614711645906
pl253,Metz,49.11911,6.17269,2994160,France,P,PPLA2,France,49.11612778,6.17269444,METZ,1,0.3316078915761069,0.0824353324706349,0,0.04121766623531745
pl254,Meudon,48.81381,2.235,2994144,France,P,PPL,France,48.81225,2.23830556,MEUDON,1,0.29778523924826916,0.07397536695416576,0,0.03698768347708288
pl256,Milan,45.46427,9.18951,3173435,Italy,P,PPLA,Italy,45.46366944,9.188125,MILAN,1,0.12698889483547757,0.031254554580679696,0,0.015627277290339848
pl257,Missy,46.88013,6.97295,8533359,Switzerland,P,PPL,Switzerland,46.88038056,6.970575,MISSY,1,0.18264826296480038,0.045176476802461785,0,0.022588238401230892
pl258,Modena,44.64783,10.92539,3173331,Italy,P,PPLA2,Italy,44.64707778,10.92521944,Modena,1,0.08472435237963977,0.02068304267558148,0,0.01034152133779074
pl259,Mons,50.45413,3.95229,2790869,Belgium,P,PPL,Belgium,50.45333333,3.94873611,MONS,1,0.2667471502007081,0.06621189647011538,0,0.03310594823505769
pl260,Mont-de-Marsan,43.89022,-0.49713,2992771,France,P,PPLA2,France,43.89096944,-0.49790278,MONT-de-MARSAN,1,0.10382386012226597,0.025460349177684628,0,0.012730174588842314
pl262,Montauban,44.01819,1.36432,2993002,France,P,PPLA2,France,44.017575,1.35891389,MONTAUBAN,1,0.4376634038048258,0.10896270139456682,0,0.05448135069728341
pl263,Montbéliard,47.51667,6.8,2992938,France,P,PPLA3,France,47.51187222,6.79971389,MONTBÉLIARD,1,0.5339213440721428,0.1330394310210488,0,0.0665197155105244
pl264,Montélimar,44.55838,4.75094,2992703,France,P,PPL,France,44.55868889,4.75093056,MONTÉLIMAR,1,0.03435514333662593,0.008084333163820212,0,0.004042166581910106
pl266,Montpellier,43.61092,3.87723,2992166,France,P,PPLA2,France,43.60850278,3.87920833,MONTPELLIER,1,0.31243159807437976,0.07763881976116951,0,0.03881940988058476
pl267,Murten/Morat,46.92827,7.11715,2659529,Switzerland,P,PPL,Switzerland,46.92865278,7.11769444,Murten,0.5,0.05933672033074812,0.014332905211593855,0.5,0.2571664526057969
pl268,Moret-sur-Loing,48.37239,2.81713,2991842,France,P,PPL,France,48.37239167,2.82095,Moret-sur-Loing,1,0.28216545417822547,0.07006843376080205,0,0.03503421688040102
pl269,Morges,46.51127,6.49854,2659587,Switzerland,P,PPLA2,Switzerland,46.51109722,6.49995556,MORGES,1,0.11001734947609264,0.027009509363353078,0,0.013504754681676539
pl270,Moscow,55.75222,37.61556,524901,Russia,P,PPLC,Russia,55.75,37.61999722,Moscow,1,0.3715391553143797,0.09242322788996556,0,0.04621161394498278
pl271,Môtiers,46.91108,6.61111,2659572,Switzerland,P,PPL,Switzerland,46.91103333,6.61103056,MOTIERS,0.8571428571428572,0.007958879527233429,0.001481909455987961,0.1428571428571428,0.07216952615656538
pl272,Moudon,46.66758,6.79781,2659569,Switzerland,P,PPL,Switzerland,46.67201667,6.79695833,MOUDON,1,0.49759679439384974,0.12395367291133651,0,0.061976836455668254
pl274,Mulhouse,47.75,7.33333,2991214,France,P,PPLA3,France,47.74949167,7.33978056,MULHOUSE,1,0.4855716758520659,0.12094586361214638,0,0.06047293180607319
pl275,Munich,48.13743,11.57549,2867714,Germany,P,PPLA,Germany,48.139125,11.58021389,MUNICH,1,0.39799029133426655,0.0990393766304799,0,0.04951968831523995
pl276,Münster,51.96236,7.62571,2867543,Germany,P,PPLA2,Germany,51.96471111,7.62849722,Münster,1,0.32374947143856947,0.08046972780033602,0,0.04023486390016801
pl277,Nailloux,43.35718,1.62302,2991040,France,P,PPL,France,43.35617222,1.62309167,Nailloux,1,0.1122097346733953,0.027557884546594767,0,0.013778942273297384
pl278,Nancy,48.68439,6.18496,2990999,France,P,PPLA2,France,48.69078889,6.18250278,NANCY,1,0.734031609761142,0.18309245261176102,0,0.09154622630588051
pl279,Nantes,47.21725,-1.55336,2990969,France,P,PPLA,France,47.21684167,-1.55674444,NANTES,1,0.25961494380513334,0.06442793761384195,0,0.03221396880692098
pl280,Naples,40.85216,14.26811,3172394,Italy,P,PPLA,Italy,40.83976667,14.25275556,NAPLES,1,1.8887010671179467,0.471906697499315,0,0.2359533487496575
pl281,Nègrepelisse,44.07436,1.51978,2990809,France,P,PPL,France,44.07535,1.52236667,NÈGREPELISSE,1,0.23413195537802256,0.05805394892542373,0,0.029026974462711866
pl282,Neuf-Brisach,48.01783,7.52795,2990683,France,P,PPL,France,48.01840278,7.528875,Neuf-Brisach,1,0.09375399403127253,0.02294160171046869,0,0.011470800855234345
pl283,Neuchâtel,46.99179,6.931,2659496,Switzerland,P,PPLA,Switzerland,46.98999444,6.92895556,Neuchâtel,1,0.2528012240244956,0.06272364092461882,0,0.03136182046230941
pl284,Neufchâteau,48.35,5.7,2990682,France,P,PPLA3,France,48.35490833,5.69262222,NEUFCHATEAU,0.9090909090909091,0.7714229034828021,0.19244503242824867,0.09090909090909094,0.1416770616686698
pl285,La Neuveville,47.06592,7.09717,2660038,Switzerland,P,PPL,Switzerland,47.06418611,7.09215,"NEUVEVILLE, La",0.5,0.4263145724560126,0.10612404992121201,0.5,0.303062024960606
pl286,Neuwied,50.4336,7.47057,2863840,Germany,P,PPLA3,Germany,50.42667222,7.4619,NEUWIED,1,0.9851715450508799,0.24590938286802003,0,0.12295469143401001
pl287,Nice,43.70313,7.26608,2990440,France,P,PPLA2,France,43.70340556,7.26620278,NICE,1,0.0321912367696316,0.007543081260799998,0,0.003771540630399999
pl288,Nidau,47.12545,7.24033,2659474,Switzerland,P,PPL,Switzerland,47.12718611,7.24033333,NIDAU,1,0.19304678848652118,0.047777430934715856,0,0.023888715467357928
pl289,Nîmes,43.83378,4.35962,2990363,France,P,PPLA2,France,43.83458889,4.36086389,NIMES,0.8,0.13433010568301204,0.033090791136502803,0.19999999999999996,0.11654539556825139
pl290,Le Noirmont,47.22464,6.95784,2659955,Switzerland,P,PPL,Switzerland,47.22405278,6.95633889,Le Noirmont,1,0.13081843812542737,0.032212427542941034,0,0.016106213771470517
pl291,Noyon,49.58333,3,2989877,France,P,PPL,France,49.58239722,3.00324444,NOYON,1,0.2558666538792351,0.06349038832848539,0,0.03174519416424269
pl292,Nürnberg,49.45421,11.07752,2861650,Germany,P,PPL,Germany,49.45051944,11.08048056,NUREMBERG,0.6666666666666667,0.46282103907032995,0.11525531040580339,0.33333333333333326,0.22429432186956832
pl293,Nyon,46.38318,6.23955,2659422,Switzerland,P,PPLA2,Switzerland,46.38083333,6.23839167,NYON,1,0.2756507112104567,0.06843891930635396,0,0.03421945965317698
pl294,Nyons,44.36667,5.13333,2989819,France,P,PPLA3,France,44.36043333,5.13997778,NYONS,1,0.8718944627085929,0.21757570279074118,0,0.10878785139537059
pl295,Obersaxen,46.75,9.1,2659354,Switzerland,P,PPL,Switzerland,46.73919167,9.082225,Obersaxen,1,1.8107399562147226,0.4524065026750297,0,0.22620325133751484
pl296,Ognes,49.61244,3.1934,2989701,France,P,PPL,France,49.61269167,3.19396944,OGNES,1,0.04966280343887598,0.011913195411157313,0,0.005956597705578656
pl297,Olginate,45.79126,9.41869,3172064,Italy,P,PPLA3,Italy,45.0125,9.188125,OLGINATE,1,88.44525271788456,1,0,0.5
pl298,Orbe,46.72504,6.53069,2659289,Switzerland,P,PPL,Switzerland,46.72486389,6.53103889,ORBE,1,0.03302590805108143,0.007751855256115584,0,0.003875927628057792
pl299,Orléans,47.90289,1.90389,2989317,France,P,PPLA,France,47.9025,1.909,ORLÉANS,1,0.3833812085485437,0.09538524757529826,0,0.04769262378764913
pl300,Ornans,47.10749,6.14306,2989252,France,P,PPL,France,47.105225,6.14472222,ORNANS,1,0.28152810256517086,0.06990901478277382,0,0.03495450739138691
pl301,Orvin,47.16068,7.21368,2659277,Switzerland,P,PPL,Switzerland,47.15894722,7.21612222,ORVIN,1,0.2668706985236079,0.06624279926689249,0,0.03312139963344624
pl302,Ostend,51.21551,2.927,2789786,Belgium,P,PPLA3,Belgium,51.22541111,2.91337222,Ostend,1,1.4535753196327084,0.3630699101482765,0,0.18153495507413825
pl303,Ouchy,46.50666,6.62493,2659265,Switzerland,P,PPL,Switzerland,46.50758056,6.62641944,OUCHY,1,0.15320382327373108,0.03781162137883253,0,0.018905810689416266
pl304,Padova,45.40797,11.88586,3171728,Italy,P,PPLA2,Italy,45.40956667,11.87658889,PADOUE,0.6666666666666667,0.7451959587995777,0.18588496004031813,0.33333333333333326,0.25960914668682566
pl305,Pamplona,42.81687,-1.64323,3114472,Spain,P,PPLA,Spain,42.81798889,-1.64421389,Pamplona,1,0.14805112830133713,0.03652279218351071,0,0.018261396091755356
pl306,Paris,48.85341,2.3488,2988507,France,P,PPLC,France,48.85885278,2.34700556,PARIS,1,0.6192848815447763,0.15439117411861536,0,0.07719558705930768
pl307,Parma,44.79935,10.32618,3171457,Italy,P,PPLA2,Italy,44.80444722,10.33251389,Parma,1,0.7556302045990951,0.1884948487858447,0,0.09424742439292234
pl308,Pavia,45.19205,9.15917,3171366,Italy,P,PPLA2,Italy,45.18588056,9.15659444,Pavia,1,0.7150868440495699,0.17835385130149134,0,0.08917692565074567
pl309,Payerne,46.82192,6.93817,2659243,Switzerland,P,PPLA2,Switzerland,46.82104444,6.93625,PAYERNE,1,0.1755574020760438,0.04340285958227746,0,0.02170142979113873
pl310,Périgueux,45.18333,0.71667,2987967,France,P,PPLA2,France,45.18679722,0.72183611,PÉRIGUEUX,1,0.5590767428363094,0.13933148062245523,0,0.06966574031122762
pl311,Péry,47.19398,7.24913,2659228,Switzerland,P,PPL,Switzerland,47.19456389,7.24829167,PÉRY,1,0.09070652259835532,0.02217934619647149,0,0.011089673098235745
pl312,Peseux,46.98704,6.88903,2659227,Switzerland,P,PPL,Switzerland,46.98720556,6.88903056,PESEUX,1,0.018409481061377467,0.00409588921571399,0,0.002047944607856995
pl313,Budapest,47.49801,19.03991,3054643,Hungary,P,PPLC,Hungary,47.49840278,19.04075833,Budapest,1,0.07725999622190662,0.018816004127422067,0,0.009408002063711033
pl314,Pierrepont-sur-l’Arentèle,48.26341,6.64826,2987233,France,P,PPL,France,48.26453333,6.64874722,Pierrepont-sur-l'Arentèle,0.96,0.13001098758826085,0.032010462196330386,0.040000000000000036,0.03600523109816521
pl316,Les Planchettes,47.10616,6.77025,8533448,Switzerland,P,PPL,Switzerland,47.10628889,6.76988056,"PLANCHETTES, Les",0.4375,0.031419761207070095,0.007350114234062795,0.5625,0.2849250571170314
pl317,Plombières-les-Bains,47.96337,6.45758,2986715,France,P,PPL,France,47.966275,6.46129167,Plombières-les-Bains,1,0.42510311522490474,0.1058210315091576,0,0.0529105157545788
pl318,Poitiers,46.58333,0.33333,2986495,France,P,PPLA2,France,46.58698611,0.34264722,POITIERS,1,0.8199217002437764,0.20457590094237738,0,0.10228795047118869
pl319,Poligny,46.83712,5.70505,2986467,France,P,PPL,France,46.83461389,5.70867222,POLIGNY,1,0.3918845648197976,0.0975121683185852,0,0.0487560841592926
pl320,Pomy,46.75856,6.66908,8533313,Switzerland,P,PPL,Switzerland,46.75745,6.66856944,POMY,1,0.1294092364482928,0.03185994786515726,0,0.01592997393257863
pl321,Pontarlier,46.90347,6.35542,2986302,France,P,PPLA3,France,46.90209722,6.35908611,PONTARLIER,1,0.3176105914168114,0.0789342268943036,0,0.0394671134471518
pl322,Pont-de-Beauvoisin,45.535,5.67111,6615316,France,P,PPL,France,45.53635,5.67306389,PONT-BEAUVOISIN,0.8333333333333334,0.21376201546528967,0.05295887277456747,0.16666666666666663,0.10981276972061704
pl323,Pontenet,47.24148,7.25136,8533475,Switzerland,P,PPL,Switzerland,47.24154722,7.25472222,PONTENET,1,0.25392836512347045,0.0630055695781465,0,0.03150278478907325
pl324,Pontlevoy,47.39002,1.25465,2986149,France,P,PPL,France,47.39089444,1.25658889,PONTLEVOY,1,0.17537916923470498,0.04335827869970759,0,0.021679139349853795
pl325,Les Ponts-de-Martel,46.99735,6.73059,2659917,Switzerland,P,PPL,Switzerland,46.99905278,6.73361667,Les Ponts de Martel,0.8947368421052632,0.297549855034997,0.07391649095863169,0.10526315789473684,0.08958982442668426
pl326,Porrentruy,47.41728,7.07573,2659171,Switzerland,P,PPLA2,Switzerland,47.41448889,7.07462778,PORRENTRUY,1,0.32124701635842295,0.07984379570372371,0,0.03992189785186186
pl328,Le Préau,47.95119,2.68964,3002502,France,P,PPL,France,46.06519722,5.45415,Préau,0.625,296.4712285507921,1,0.375,0.6875
pl329,Bratislava,48.14816,17.10674,3060972,Slovakia,P,PPLC,Slovakia,48.14837778,17.10731111,Bratislava,1,0.048802464509041514,0.011698001238674125,0,0.005849000619337063
pl331,Rapperswil,47.22557,8.82228,2659099,Switzerland,P,PPL,Switzerland,47.22660556,8.81844167,RAPPERSWIL,1,0.3118803192602265,0.07750092993181815,0,0.03875046496590907
pl332,Radstadt,47.38333,13.45,2768098,Austria,P,PPLA3,Austria,47.38474167,13.4627,Radstadt,1,0.9689564160845774,0.24185353796944847,0,0.12092676898472424
pl333,Ravenna,44.41344,12.20121,3169561,Italy,P,PPLA2,Italy,44.41572778,12.19658056,Ravenna,1,0.4471191646620815,0.11132784443565594,0,0.05566392221782797
pl334,Reggio nell'Emilia,44.69825,10.63125,3169522,Italy,P,PPLA2,Italy,44.6981,10.63078333,REGGIO,0.33333333333333337,0.040481315670088815,0.00961665553128833,0.6666666666666666,0.3381416610989775
pl335,Reims,49.25,4.03333,2984114,France,P,PPLA3,France,49.25660278,4.03308889,REIMS,1,0.7344041567234594,0.1831856367424413,0,0.09159281837122064
pl336,Remaufens,46.52872,6.88262,8533374,Switzerland,P,PPL,Switzerland,46.52760833,6.87889167,Remaufens,1,0.3108581928725896,0.07724526831459587,0,0.038622634157297935
pl337,Renan,47.12686,6.92825,2659071,Switzerland,P,PPL,Switzerland,47.1288,6.93265833,RENAN,1,0.39718915709649755,0.09883899116218799,0,0.04941949558109399
pl340,Rennes,48.11198,-1.67429,2983990,France,P,PPLA,France,48.11176111,-1.68026389,RENNES,1,0.4441835433577375,0.11059356568177707,0,0.055296782840888535
pl341,Reus,41.15612,1.10687,3111933,Spain,P,PPLA3,Spain,41.15481667,1.108675,Reus,1,0.2093785591059065,0.051862451084042416,0,0.025931225542021208
pl342,Revel,43.45812,2.00469,2983833,France,P,PPL,France,43.45796389,2.00694722,REVEL,1,0.18301429110665238,0.04526803039879451,0,0.022634015199397256
pl343,Roanne,46.03333,4.06667,2983362,France,P,PPLA3,France,46.03918333,4.07186667,ROANNE,1,0.7645477752785901,0.19072537582162982,0,0.09536268791081491
pl344,Rochefort,45.93333,-0.98333,2983276,France,P,PPLA3,France,45.94503333,-0.97567222,ROCHEFORT,1,1.4297421878667127,0.35710859549632534,0,0.17855429774816267
pl345,La Rochelle,46.16667,-1.15,3006787,France,P,PPLA2,France,46.1581,-1.15363889,"ROCHELLE, La",0.41666666666666663,0.9932956176385666,0.2479414344433648,0.5833333333333334,0.4156373838883491
pl346,Rolle,46.4582,6.33499,2658989,Switzerland,P,PPL,Switzerland,46.456425,6.3366,ROLLE,1,0.23273429186644737,0.05770435525675035,0,0.028852177628375174
pl347,Romainmôtier,46.69393,6.46086,2658988,Switzerland,P,PPL,Switzerland,46.71327778,6.46219444,Romainmotier,0.9166666666666666,2.153780112816011,0.5382101784920945,0.08333333333333337,0.31077175591271394
pl348,Rome,41.89193,12.51133,3169070,Italy,P,PPLC,Italy,41.89546389,12.482325,ROME,1,2.4327426797022476,0.6079863058450896,0,0.3039931529225448
pl349,Rotterdam,51.9225,4.47917,2747891,Netherlands,P,PPL,Netherlands,51.92445833,4.27160833,ROTTERDAM,1,14.23528434236072,1,0,0.5
pl350,Rouen,49.44313,1.09932,2982652,France,P,PPLA,France,49.44236667,1.09849167,ROUEN,1,0.10387939406358415,0.025474239727248618,0,0.012737119863624309
pl351,Les Rousses,46.48412,6.0633,2999706,France,P,PPL,France,46.48541944,6.06016667,"ROUSSES, Les",0.25,0.2800505124804581,0.06953942930369954,0.75,0.40976971465184975
pl352,Ruelle-sur-Touvre,45.68333,0.23333,2982231,France,P,PPL,France,45.67728611,0.23191111,Ruelle-sur-Touvre,1,0.6810299241954212,0.1698352891032774,0,0.0849176445516387
pl353,Rueyres-les-Prés,46.85865,6.91208,8533356,Switzerland,P,PPL,Switzerland,46.85954167,6.916625,Rueyres-les-Prés,1,0.3595190550182374,0.0894166737905353,0,0.04470833689526765
pl354,Saarbrücken,49.23262,7.00982,2842647,Germany,P,PPLA,Germany,49.23486111,6.99441389,Saarbrücken,1,1.14602086185893,0.28614217302161,0,0.143071086510805
pl355,La Sagne,47.04591,6.80946,2660013,Switzerland,P,PPL,Switzerland,47.04597222,6.80968889,"SAGNE, La",0.2222222222222222,0.01867195863628233,0.00416154199808653,0.7777777777777778,0.39096965988793214
pl356,Saint-Aubin,46.89004,6.98048,2658879,Switzerland,P,PPL,Switzerland,46.89425278,6.77261111,SAINT-AUBIN,1,15.802419954893098,1,0,0.5
pl357,Saint-Aubin-de-Crétot,49.56809,0.63709,2981584,France,P,PPL,France,49.46214722,0.52628611,SAINT-AUBIN de CRETOT,0.8571428571428572,14.239509297967656,1,0.1428571428571428,0.5714285714285714
pl358,Saint-Blaise,47.01511,6.98832,2658878,Switzerland,P,PPL,Switzerland,47.01263611,6.98664167,SAINT-BLAISE,1,0.3030873149770657,0.07530156034067342,0,0.03765078017033671
pl359,Saint-Claude,46.38679,5.86473,2981077,France,P,PPLA3,France,46.39071667,5.86426944,SAINT-CLAUDE,1,0.43805234980709645,0.10905998737128692,0,0.05452999368564346
pl360,Saint-Dizier,48.63333,4.95,2980816,France,P,PPLA3,France,48.63728611,4.9497,SAINT-DIZIER,1,0.44045139017102547,0.10966005263390242,0,0.05483002631695121
pl361,Sainte-Croix,46.82203,6.50283,2658874,Switzerland,P,PPL,Switzerland,46.822375,6.50376667,SAINTE-CROIX,1,0.08093710530340131,0.019735749147067883,0,0.009867874573533941
pl362,Sankt Gallen,47.42391,9.37477,2658822,Switzerland,P,PPLA,Switzerland,47.42648333,9.37605278,Saint Gallen,0.8333333333333334,0.3019760546596121,0.07502360390265214,0.16666666666666663,0.12084513528465939
pl363,Saint-George,46.51428,6.2598,8379126,Switzerland,P,PPLA3,Switzerland,46.51379722,6.26018611,SAINT-GEORGE,1,0.06127631188746378,0.014818049827894213,0,0.0074090249139471065
pl365,Saint-Maixent-l’École,46.41395,-0.20888,2978643,France,P,PPL,France,46.41051111,-0.20505,Saint-Maixent l'Ecole,0.8571428571428572,0.48211689954176,0.12008173006729582,0.1428571428571428,0.1314694364622193
pl366,Saint-Malo,48.65,-2.01667,2978640,France,P,PPLA3,France,48.64817778,-2.02608889,SAINT-MALO,1,0.720997113014923,0.17983217036279076,0,0.08991608518139538
pl367,Saint-Maurice,46.21826,7.0032,2658864,Switzerland,P,PPLA2,Switzerland,46.83448333,6.65701111,SAINT-MAURICE,1,73.46113434264495,1,0,0.5
pl368,Saint Petersburg,59.93863,30.31413,498817,Russia,P,PPLA,Russia,59.95188889,30.45332778,Saint Petersburg,1,7.890799925321753,1,0,0.5
pl369,Saint-Quentin,49.84889,3.28757,2977295,France,P,PPLA3,France,49.84817778,3.28821667,SAINT-QUENTIN,1,0.09176979341353145,0.022445299154384687,0,0.011222649577192344
pl370,Saint-Quirin,48.61018,7.06569,2977255,France,P,PPL,France,48.60939444,7.06437778,SAINT-QUIRIN,1,0.13014397777733813,0.032043726660711154,0,0.016021863330355577
pl371,Saint-Sulpice,46.91111,6.56219,2658859,Switzerland,P,PPL,Switzerland,46.90941389,6.55591389,SAINT-SULPICE,1,0.5126951778639602,0.12773018937945613,0,0.06386509468972806
pl372,Saintes,45.75,-0.63333,2980340,France,P,PPLA3,France,45.746389,-0.63710833,SAINTES,1,0.4971645831964556,0.12384556513225567,0,0.061922782566127835
pl373,Salins-les-Bains,46.94663,5.87763,2976413,France,P,PPL,France,46.94320278,5.87991111,Salins-les-Bains,1,0.4185875589841309,0.10419131363300528,0,0.05209565681650264
pl374,Salon-de-Provence,43.64074,5.09545,2976341,France,P,PPL,France,43.64050556,5.08660278,Salon-de-Provence,1,0.7124115664397629,0.1776846915884513,0,0.08884234579422565
pl375,La Sarraz,46.65863,6.51077,2660012,Switzerland,P,PPLA3,Switzerland,46.65916111,6.51421944,"SARRAZ, La",0.30000000000000004,0.2697957638278385,0.0669744376779595,0.7,0.38348721883897974
pl376,Sarreguemines,49.10995,7.06747,2975964,France,P,PPLA3,France,49.11390556,7.07191667,SARREGUEMINES,1,0.5460873966545297,0.1360824917580044,0,0.0680412458790022
pl377,Saarlouis,49.31366,6.75154,2842632,Germany,P,PPLA3,Germany,49.31567778,6.75034722,Saarlouis,1,0.24045023684470113,0.0596343230135745,0,0.02981716150678725
pl378,Sassel,46.77696,6.8571,8468929,Switzerland,P,PPL,Switzerland,46.77669722,6.85685833,SASSEL,1,0.03453233156886281,0.008128652761234348,0,0.004064326380617174
pl380,Saules,47.24575,7.22179,8533473,Switzerland,P,PPL,Switzerland,47.24426667,7.21855,Saules,1,0.29499499623814285,0.07327745126679049,0,0.03663872563339524
pl381,Schafisheim,47.37664,8.14263,2658759,Switzerland,P,PPL,Switzerland,47.37736111,8.14270833,Schafisheim,1,0.0804004045788382,0.01960150569453028,0,0.00980075284726514
pl382,Schaffhausen,47.69732,8.63493,2658761,Switzerland,P,PPLA,Switzerland,47.69746667,8.63222778,SCHAFFHOUSE,0.8333333333333334,0.20288885329996623,0.05023919910492141,0.16666666666666663,0.10845293288579402
pl383,Schwyz,47.02076,8.65414,2658665,Switzerland,P,PPLA,Switzerland,47.02099167,8.65351389,SCHWYZ,1,0.05400258373478347,0.012998692529968775,0,0.006499346264984387
pl384,Sedan,49.7,4.95,2975349,France,P,PPLA3,France,49.70101944,4.94447778,SEDAN,1,0.4130130683605608,0.10279698187007405,0,0.051398490935037025
pl385,Semur-en-Auxois,47.48333,4.33333,2975143,France,P,PPL,France,47.49056389,4.33198889,SEMUR en AUXOIS,0.8666666666666667,0.8106596911223937,0.20225922048158365,0.1333333333333333,0.16779627690745846
pl386,Cernay,47.8097,7.17699,3027857,France,P,PPL,France,47.808975,7.17568056,Cernay,1,0.1267331475281831,0.03119058522133823,0,0.015595292610669114
pl387,Sens,48.2,3.28333,2975050,France,P,PPLA3,France,48.19775833,3.28717778,SENS,1,0.3787637080135621,0.09423028506911803,0,0.047115142534559014
pl388,Serrières,46.98333,6.90323,2658619,Switzerland,P,PPL,Switzerland,46.98343889,6.90328611,SERRIERES,0.8888888888888888,0.012834370972159876,0.002701402507571329,0.11111111111111116,0.05690625680934124
pl389,Siena,43.31822,11.33064,3166548,Italy,P,PPLA2,Italy,43.31866111,11.33051389,Siena,1,0.050099007755578816,0.012022301978012913,0,0.006011150989006456
pl390,Signau,46.91944,7.72418,2658600,Switzerland,P,PPL,Switzerland,46.92178611,7.72754722,SIGNAU,1,0.3653144275477641,0.0908662541273954,0,0.0454331270636977
pl391,Soissons,49.38167,3.32361,2974389,France,P,PPLA3,France,49.38231944,3.32771667,SOISSONS,1,0.3059244269638389,0.07601119923421189,0,0.038005599617105944
pl392,Solothurn,47.20791,7.53714,2658564,Switzerland,P,PPLA,Switzerland,47.20695833,7.53331111,Solothurn,1,0.3079841092440632,0.07652638180761517,0,0.03826319090380759
pl393,La Sône,45.11487,5.27979,3006399,France,P,PPL,France,45.11120278,5.27590833,"SÔNE, La",0.125,0.5089820427026563,0.12680143325713494,0.875,0.5009007166285675
pl394,Sonvilier,47.13883,6.96404,2658553,Switzerland,P,PPL,Switzerland,47.139025,6.96463889,Sonvilier,1,0.05022054008917688,0.012052700521019236,0,0.006026350260509618
pl395,Stockholm,59.33258,18.0649,2673730,Sweden,P,PPLC,Sweden,59.332725,18.06445278,STOCKHOLM,1,0.03005499604830829,0.0070087493384510865,0,0.0035043746692255432
pl396,Strasbourg,48.58392,7.74553,2973783,France,P,PPLA,France,48.58293333,7.74374722,STRASBOURG,1,0.1709803605491028,0.04225801697472422,0,0.02112900848736211
pl397,Tarbes,43.23333,0.08333,2973385,France,P,PPLA2,France,43.23286389,0.07411944,TARBES,1,0.7479787327350681,0.18658100750892548,0,0.09329050375446274
pl398,Tavannes,47.22079,7.19759,2658415,Switzerland,P,PPL,Switzerland,47.22008333,7.19979722,TAVANNES,1,0.18428456176057303,0.04558575964795534,0,0.02279287982397767
pl399,Thiers,45.85,3.56667,2972857,France,P,PPLA3,France,45.85524722,3.54823611,Thiers,1,1.5422920538498481,0.38526037897774285,0,0.19263018948887142
pl400,Thionville,49.36667,6.16667,2972811,France,P,PPLA3,France,49.35708333,6.16844722,THIONVILLE,1,1.0737306535768452,0.2680604252238048,0,0.1340302126119024
pl401,Thorberg,47.00129,7.56544,2658379,Switzerland,P,PPL,Switzerland,47.00251944,7.56440556,THORBERG,1,0.15761457304370324,0.038914869893882514,0,0.019457434946941257
pl402,Thun,46.75118,7.62166,2658377,Switzerland,P,PPLA2,Switzerland,46.75258056,7.62333889,Thun,1,0.20152907607187548,0.04989908182647072,0,0.02494954091323536
pl403,Tonneins,44.39206,0.31241,2972468,France,P,PPL,France,44.38979722,0.31048611,TONNEINS,1,0.2944082440631793,0.07313068858482247,0,0.036565344292411234
pl404,Tonnerre,47.85628,3.97369,2972467,France,P,PPL,France,47.85649167,3.97466944,TONNERRE,1,0.07677365957778297,0.01869435810159295,0,0.009347179050796475
pl405,Toul,48.68333,5.9,2972350,France,P,PPLA3,France,48.68345833,5.8951,TOUL,1,0.3600068363078446,0.08953868116150246,0,0.04476934058075123
pl406,Toulon,43.12442,5.92836,2972328,France,P,PPLA2,France,43.12516111,5.93111111,TOULON,1,0.2379955910452034,0.05902034931873789,0,0.029510174659368945
pl407,Toulouse,43.60426,1.44367,2972315,France,P,PPLA,France,43.60436389,1.44295,TOULOUSE,1,0.059113049587284264,0.01427695907353212,0,0.00713847953676606
pl408,Tours,47.39484,0.70398,2972191,France,P,PPLA2,France,47.39029444,0.68885,TOURS,1,1.2460408500464346,0.3111598931821163,0,0.15557994659105814
pl409,Travers,46.94018,6.67595,2658328,Switzerland,P,PPL,Switzerland,46.94023333,6.67599722,TRAVERS,1,0.00692942081861058,0.0012244138258061116,0,6.122069129030558e-4
pl410,Troyes,48.30073,4.08524,2971549,France,P,PPLA2,France,48.29746944,4.0748,TROYES,1,0.8531343027899508,0.212883276411615,0,0.1064416382058075
pl411,Tübingen,48.52266,9.05222,2820860,Germany,P,PPLA2,Germany,48.52290278,9.05209722,Tübingen,1,0.028470039850264698,0.006612308673461404,0,0.003306154336730702
pl412,Turin,45.07049,7.68682,3165524,Italy,P,PPLA,Italy,45.41261111,7.68671111,TURIN,1,38.04213268530223,1,0,0.5
pl413,Ulm,48.39841,9.99155,2820256,Germany,P,PPLA3,Germany,48.39962222,9.99660833,ULM,1,0.39702165695271074,0.09879709481926653,0,0.049398547409633266
pl414,Uzès,44.01362,4.41529,2971258,France,P,PPL,France,44.01070278,4.41898889,UZÈS,1,0.4390004373393174,0.10929712985649,0,0.054648564928245
pl416,Valencia,39.46975,-0.37739,2509954,Spain,P,PPLA,Spain,39.47023889,-0.37680278,Valencia,1,0.07413478613172604,0.018034304060307923,0,0.009017152030153961
pl417,Valenciennes,50.35,3.53333,2971041,France,P,PPLA3,France,50.35763333,3.52348889,VALENCIENNES,1,1.099056199461832,0.27439503324910164,0,0.13719751662455082
pl418,Vallon,46.88379,6.95543,8533360,Switzerland,P,PPL,Switzerland,46.88287778,6.950675,VALLON,1,0.37534659064525094,0.09337557105019861,0,0.04668778552509931
pl419,Warsaw,52.22977,21.01178,756135,Poland,P,PPLC,Poland,52.25999722,21.02,Warsaw,1,3.4073870142978566,0.8517713698187527,0,0.42588568490937634
pl420,Vaumarcus,46.87799,6.75874,11048568,Switzerland,P,PPL,Switzerland,46.87835833,6.75723611,VAUMARCUS,1,0.12142281746719122,0.02986232720178353,0,0.014931163600891764
pl421,Venice,45.43713,12.33265,3164603,Italy,P,PPLA,Italy,45.43449167,12.33839722,Venice,1,0.5358721338942504,0.13352737662818043,0,0.06676368831409021
pl422,Bergara,43.1151,-2.4175,3106090,Spain,P,PPL,Spain,43.11821667,-2.41335833,Bergara,1,0.48281885927526524,0.12025730929395854,0,0.06012865464697927
pl423,Verdun,49.16667,5.38333,2969958,France,P,PPLA3,France,49.15901667,5.38399722,VERDUN,1,0.8523932132872738,0.21269790976512923,0,0.10634895488256461
pl424,Les Verrières,46.90413,6.48039,2659912,Switzerland,P,PPL,Switzerland,46.90411389,6.48021111,VERRIÈRES,0.6923076923076923,0.013707955456599818,0.002919909753616065,0.3076923076923077,0.15530610872296188
pl425,Versailles,48.80359,2.13424,2969679,France,P,PPLA2,France,48.80233056,2.12982222,VERSAILLES,1,0.35255929646095996,0.08767584883018595,0,0.043837924415092974
pl426,Versoix,46.28382,6.16214,2658151,Switzerland,P,PPL,Switzerland,46.28228889,6.16596667,VERSOIX,1,0.3397945154581374,0.08448302982644748,0,0.04224151491322374
pl427,Vevey,46.46299,6.84345,2658145,Switzerland,P,PPLA2,Switzerland,46.45890556,6.84716111,VEVEY,1,0.5357911028309891,0.13350710855475115,0,0.06675355427737557
pl428,Vienna,48.20849,16.37208,2761369,Austria,P,PPLC,Austria,48.22,16.37,Vienna,1,1.2890993417648213,0.32192999339773154,0,0.16096499669886577
pl429,Vilars,47.03304,6.92784,7670454,Switzerland,P,PPL,Switzerland,47.03145278,6.92682222,VILARS,1,0.192611128660033,0.04766846055967618,0,0.02383423027983809
pl430,La Villette,48.91188,-0.54316,3005468,France,P,PPL,France,48.91236389,-0.54383611,"VILLETTE, La",0.41666666666666663,0.07305063330121216,0.017763127942248696,0.5833333333333334,0.300548230637791
pl431,Vouvry,46.33746,6.8895,2658093,Switzerland,P,PPL,Switzerland,46.33758889,6.891625,VOUVRY,1,0.16376448697049284,0.04045313067974855,0,0.020226565339874276
pl433,Vuillafans,47.06481,6.21528,2967547,France,P,PPL,France,47.06508611,6.21616389,VUILLAFANS,1,0.07365227419256272,0.0179136146972432,0,0.0089568073486216
pl434,Varakļāni,56.60826,26.75377,454530,Latvia,P,PPLA,Latvia,56.60819444,26.75441944,Varaklani,0.7777777777777778,0.04040703575714303,0.009598076104222805,0.2222222222222222,0.11591014916322251
pl435,Warthausen,48.12863,9.79749,2813914,Germany,P,PPLA4,Germany,48.12885833,9.79789722,WARTHAUSEN,1,0.039472051114204446,0.00936421100810264,0,0.00468210550405132
pl436,Wesel,51.6669,6.62037,2810678,Germany,P,PPLA3,Germany,51.66082778,6.60915556,WESEL,1,1.0267219871059141,0.2563022788352687,0,0.12815113941763434
pl437,Winterthur,47.50564,8.72413,2657970,Switzerland,P,PPLA2,Switzerland,47.49987778,8.72616111,Winterthur,1,0.658644907201049,0.16423618735270004,0,0.08211809367635002
pl438,Wismar,53.89314,11.45286,2807465,Germany,P,PPLA3,Germany,53.88821389,11.46201667,WISMAR,1,0.8124568376313235,0.20270873571611409,0,0.10135436785805704
pl439,Yverdon-les-Bains,46.77852,6.64115,2657941,Switzerland,P,PPLA2,Switzerland,46.77869167,6.6414,YVERDON,0.4117647058823529,0.026959135339078486,0.006234390349983482,0.5882352941176471,0.2972348422338153
pl440,Zug,47.17242,8.51745,2657908,Switzerland,P,PPLA,Switzerland,47.16619167,8.51541389,Zug,1,0.7094563300672708,0.17694550657238675,0,0.08847275328619338
pl441,Zürich,47.36667,8.55,2657896,Switzerland,P,PPLA,Switzerland,47.38,8.54,ZURICH,0.8333333333333334,1.662545940116431,0.41533914752539375,0.16666666666666663,0.29100290709603016
pl443,La Mothe,46.82016,6.56711,7670242,Switzerland,P,PPL,Switzerland,46.81886111,6.56640556,"MOTHE, La",0.2222222222222222,0.1540555446175497,0.03802466005860561,0.7777777777777778,0.4079012189181917
pl444,Joinville,48.44363,5.14144,3012315,France,P,PPL,France,48.44247778,5.14035,JOINVILLE,1,0.1512592983929105,0.03732524280395895,0,0.018662621401979475
pl445,Jussey,47.82536,5.90193,3012026,France,P,PPL,France,47.824975,5.90209722,JUSSEY,1,0.044593145734005885,0.010645136095531041,0,0.0053225680477655204
pl446,Worms,49.63278,8.35916,2806142,Germany,P,PPLA3,Germany,49.63064444,8.35791111,WORMS,1,0.2539274887362767,0.06300535036986661,0,0.031502675184933306
pl447,Bôle,46.96603,6.84198,8533439,Switzerland,P,PPL,Switzerland,46.967275,6.84121389,BÔLE,1,0.15014844745343864,0.03704738876250832,0,0.01852369438125416
pl448,Verona,45.4299,10.98444,3164527,Italy,P,PPLA2,Italy,45.44200556,10.99548611,Verona,1,1.598364664446062,0.3992856643830492,0,0.1996428321915246
pl449,Sarzens,46.68134,6.84738,8533386,Switzerland,P,PPL,Switzerland,46.68164722,6.84942778,Sarzens,1,0.15990781272591986,0.03948847152761907,0,0.019744235763809535
pl450,Chinon,47.16667,0.25,3025132,France,P,PPLA3,France,47.16608333,0.23808056,CHINON,1,0.9034475582965112,0.22546799042165355,0,0.11273399521082678
pl451,Calais,50.95194,1.85635,3029162,France,P,PPLA3,France,50.95786389,1.85214167,CALAIS,1,0.7216548037862746,0.1799966767176503,0,0.08999833835882515
pl452,Hofstetten,46.75351,8.07487,8335469,Switzerland,P,PPL,Switzerland,46.75393333,8.07499444,HOFSTETTEN,1,0.04801731997112481,0.011501615229326405,0,0.005750807614663202
pl453,Bönnigheim,49.04018,9.09386,2946428,Germany,P,PPL,Germany,49.04081667,9.09605278,Bönnigheim,1,0.17481078942525413,0.04321611144618756,0,0.02160805572309378
pl454,Regensburg,49.01513,12.10161,2849483,Germany,P,PPLA2,Germany,49.01649167,12.10090278,Regensberg,0.9,0.15995397594511593,0.03950001820464317,0.09999999999999998,0.06975000910232157
pl455,Villefranche-sur-Saône,45.98333,4.71667,2968748,France,P,PPLA3,France,45.98986389,4.71875278,Villefranche-sur-Saône,1,0.744142688938768,0.18562150859317506,0,0.09281075429658753
pl456,Bottens,46.61596,6.66149,2661435,Switzerland,P,PPL,Switzerland,46.61694167,6.66030833,BOTTENS,1,0.14163609260768686,0.03491821723092687,0,0.017459108615463435
pl457,Saumur,47.26667,-0.08333,2975758,France,P,PPLA3,France,47.25554722,-0.08342222,SAUMUR,1,1.236816285198344,0.308852578552771,0,0.1544262892763855
pl460,Crissier,46.54586,6.57567,2661072,Switzerland,P,PPL,Switzerland,46.55556667,6.57816667,CRISSIER,1,1.0960881567749476,0.2736526450254027,0,0.13682632251270135
pl461,Kehrsatz,46.91035,7.47096,2660177,Switzerland,P,PPL,Switzerland,46.90973056,7.47074444,KEHRSATZ,1,0.07079817746536676,0.017199727458043088,0,0.008599863729021544
pl462,Dun-sur-Meuse,49.38332,5.18587,3020676,France,P,PPL,France,49.38556667,5.18303889,DUN-SUR-MEUSE,1,0.32311959830863024,0.08031217939439239,0,0.040156089697196196
pl464,Piacenza,45.05242,9.69342,3171058,Italy,P,PPLA2,Italy,45.05239167,9.69874444,Piacenza,1,0.41827184930425154,0.1041123460529614,0,0.0520561730264807
pl465,Sitten,46.22739,7.35559,2658576,Switzerland,P,PPLA,Switzerland,46.23240833,7.35848611,SION,0.5,0.6008372824258683,0.14977692769894121,0.5,0.3248884638494706
pl466,Dombresson,47.07192,6.9592,2661000,Switzerland,P,PPL,Switzerland,47.07174722,6.95821667,DOMBRESSON,1,0.07690860122115754,0.018728110677784172,0,0.009364055338892086
pl467,Bévilard,47.23711,7.28325,2661528,Switzerland,P,PPL,Switzerland,47.23710833,7.28661667,BEVILARD,0.875,0.25417546536368074,0.06306737607076063,0.125,0.09403368803538031
pl470,Riga,56.946,24.10589,456172,Latvia,P,PPLC,Latvia,56.94653889,24.10485,RIGA,1,0.08700008229187728,0.021252264639480534,0,0.010626132319740267
pl471,Fredericia,55.56568,9.75257,2621951,Denmark,P,PPLA2,Denmark,55.56568056,9.75366389,FREDERICIA,1,0.06877990412242897,0.016694902386414703,0,0.008347451193207352
pl472,Ligny-en-Barrois,48.68861,5.32543,2998362,France,P,PPL,France,48.68840833,5.32288333,LIGNY-EN-BARROIS,1,0.18828000287818583,0.04658512817028341,0,0.023292564085141704
pl473,Potsdam,52.39886,13.06566,2852458,Germany,P,PPLA,Germany,52.39696389,13.0586,POTSDAM,1,0.5233563931551184,0.13039684936970822,0,0.06519842468485411
pl474,Bilbao,43.26271,-2.92528,3128026,Spain,P,PPLA2,Spain,43.25696389,-2.92344167,BILBAO,1,0.656050868662024,0.1635873477414292,0,0.0817936738707146
pl475,Avallon,47.48333,3.9,3035768,France,P,PPLA3,France,47.49255278,3.90798889,AVALLON,1,1.1882934731131953,0.29671570315271234,0,0.14835785157635617
pl476,Pisa,43.70853,10.4036,3170647,Italy,P,PPLA2,Italy,43.71613611,10.39660278,Pisa,1,1.0156756384967915,0.25353928652436825,0,0.12676964326218412
pl477,Antwerpen,51.21989,4.40346,2803138,Belgium,P,PPL,Belgium,51.22058056,4.39972222,Antwerp,0.7777777777777778,0.2714049388686537,0.06737693613441718,0.2222222222222222,0.1447995791783197
pl478,Bremgarten,47.35109,8.34214,2661407,Switzerland,P,PPLA2,Switzerland,47.35089444,8.34426111,BREMGARTEN,1,0.16126694912304235,0.03982842851681033,0,0.019914214258405165
pl479,Glarus,47.04057,9.06804,2660594,Switzerland,P,PPLA,Switzerland,47.04268889,9.06750833,Glarus,1,0.23902945498588052,0.059278946817303974,0,0.029639473408651987
pl480,Péronne,49.93333,2.93333,2987928,France,P,PPLA3,France,49.92932222,2.93500556,PERONNE,0.8571428571428572,0.46150056870546985,0.11492502484321782,0.1428571428571428,0.1288910838501803
pl481,Cudrefin,46.95577,7.01855,2661068,Switzerland,P,PPL,Switzerland,46.95588611,7.01839444,CUDREFIN,1,0.01749530709406331,0.0038672294357367048,0,0.0019336147178683524
pl482,Gent,51.05,3.71667,2797656,Belgium,P,PPL,Belgium,51.05401111,3.72169722,GHENT,0.8,0.5678106636387891,0.14151607182767353,0.19999999999999996,0.17075803591383676
pl483,Ieper,50.85114,2.88569,2795100,Belgium,P,PPLA3,Belgium,50.85,2.88419167,YPRES,0.19999999999999996,0.16472043213649523,0.04069223857293289,0.8,0.4203461192864665
pl485,Brugge,51.20892,3.22424,2800931,Belgium,P,PPL,Belgium,51.20941111,3.22523056,BRUGES,0.6666666666666667,0.08799799312201684,0.021501869286971273,0.33333333333333326,0.17741760131015227
pl486,Tournay,43.18438,0.24454,2972248,France,P,PPL,France,50.60586667,3.38845,TOURNAY,1,858.9018590064474,1,0,0.5
pl487,Avranches,48.68333,-1.36667,3035639,France,P,PPLA3,France,48.68376111,-1.35510278,AVRANCHES,1,0.8505342686547718,0.21223293713863156,0,0.10611646856931578
pl488,Saint-Junien,45.88867,0.90143,2979036,France,P,PPL,France,45.88769722,0.89903889,SAINT-JUNIEN,1,0.21436089063643415,0.05310866774769505,0,0.026554333873847525
pl489,Ermenonville,49.12648,2.69772,3019906,France,P,PPL,France,49.12559167,2.69365833,ERMENONVILLE,1,0.3116198096225617,0.07743576938408847,0,0.038717884692044235
pl490,Pont-à-Mousson,48.90702,6.05635,2986306,France,P,PPL,France,48.90581389,6.05978889,PONT-A-MOUSSON,0.9285714285714286,0.2848823478717058,0.07074800278856391,0.0714285714285714,0.07108828710856765
pl491,Noiraigue,46.95622,6.72462,2659442,Switzerland,P,PPL,Switzerland,46.95628333,6.724675,NOIRAIGUE,1,0.008186232482107156,0.0015387766153004802,0,7.693883076502401e-4
pl492,Castres,43.6,2.25,3028263,France,P,PPLA3,France,43.60529167,2.24100833,CASTRES,1,0.9329636160544982,0.2328507594722393,0,0.11642537973611965
pl493,Conflans-sur-Lanterne,47.81667,6.21667,3023928,France,P,PPL,France,47.8151,6.20872778,Conflans-sur-Lanterne,1,0.618199951314394,0.1541198035516993,0,0.07705990177584965
pl494,Herrenberg,48.59523,8.86648,2905826,Germany,P,PPL,Germany,48.66170833,9.00354167,WURTTEMBERG,0.5454545454545454,12.494373447442669,1,0.4545454545454546,0.7272727272727273
pl496,Duisburg,51.43247,6.76516,2934691,Germany,P,PPLA3,Germany,51.43278889,6.76805556,Duisburg,1,0.20383604869439192,0.050476118442190666,0,0.025238059221095333
pl497,Hauterive,47.01233,6.97615,6692332,Switzerland,P,PPL,Switzerland,47.01306667,6.97763611,HAUTERIVE,1,0.13930139424870353,0.03433424565421821,0,0.017167122827109103
pl499,Düsseldorf,51.22172,6.77616,2934246,Germany,P,PPLA,Germany,51.22500556,6.77562778,DUSSELDORF,0.9,0.367212857432995,0.0913411030898249,0.09999999999999998,0.09567055154491244
pl500,Arnhem,51.98,5.91111,2759661,Netherlands,P,PPLA,Netherlands,51.97973056,5.91240278,Arnhem,1,0.09347309495520853,0.022871341209486227,0,0.011435670604743113
pl501,Jougne,46.76291,6.38838,3012211,France,P,PPL,France,46.762075,6.38875,JOUGNE,1,0.09703096595412344,0.023761261540722122,0,0.011880630770361061
pl502,Gotha,50.94823,10.70193,2918752,Germany,P,PPLA3,Germany,50.94835278,10.69727222,GOTHA,1,0.32658716919441055,0.08117951321065463,0,0.040589756605327314
pl503,Bolligen,46.9751,7.49697,2661456,Switzerland,P,PPL,Switzerland,46.97551111,7.49730556,BOLLIGEN,1,0.05232460326381714,0.012578983963529706,0,0.006289491981764853
pl504,Trieste,45.64953,13.77678,3165185,Italy,P,PPLA,Italy,45.694525,13.74733889,TRIESTE,1,5.5013669571421255,1,0,0.5
pl505,Portalban,46.91889,6.95627,2659169,Switzerland,P,PPL,Switzerland,46.91788889,6.95603889,PORTALBAN,1,0.11269374800259835,0.02767894944815481,0,0.013839474724077405
pl506,Bourbonne-les-Bains,47.95305,5.74801,3031086,France,P,PPL,France,47.95350833,5.74764722,BOURBONNE LES BAINS,0.8947368421052632,0.057682129181128354,0.01391904695074666,0.10526315789473684,0.05959110242274175
pl507,Remiremont,48.01754,6.5882,2984050,France,P,PPL,France,48.01650556,6.58988056,REMIREMONT,1,0.16986871816432925,0.04197996497127181,0,0.020989982485635904
pl508,Genlis,47.24203,5.22415,3016332,France,P,PPL,France,47.24015278,5.22251944,GENLIS,1,0.24232916753524458,0.060104294696923244,0,0.030052147348461622
pl511,Valangin,47.01606,6.90669,2658204,Switzerland,P,PPL,Switzerland,47.01607222,6.90658333,Valangin,1,0.0082002232299262,0.0015422760819582533,0,7.711380409791267e-4
pl512,Krems an der Donau,48.40921,15.61415,2773549,Austria,P,PPLA3,Austria,48.40996944,15.60386667,Krems an der Donau,1,0.7637091299059543,0.19051560779799068,0,0.09525780389899534
pl513,Bure,47.44492,7.00937,2661325,Switzerland,P,PPL,Switzerland,47.44241389,7.00697222,BURE,1,0.3319191678518738,0.08251319113569637,0,0.041256595567848185
pl514,Utrecht,52.09083,5.12222,2745912,Netherlands,P,PPLA,Netherlands,52.09126111,5.12274722,UTRECHT,1,0.0599613398963069,0.014489139558158982,0,0.007244569779079491
pl515,Aix-les-Bains,45.69173,5.90863,3038350,France,P,PPL,France,45.68949722,5.91565278,Aix-les-Bains,1,0.5993253120390677,0.1493987427709742,0,0.0746993713854871
pl516,Saint-Denis,48.93333,2.36667,2980916,France,P,PPLA3,France,48.93606389,2.36488333,SAINT-DENIS,1,0.33082535817735836,0.08223959957823106,0,0.04111979978911553
pl517,Mirecourt,48.30089,6.13282,2993728,France,P,PPL,France,48.30009167,6.134125,MIRECOURT,1,0.13114207157630983,0.03229337707368461,0,0.016146688536842306
pl518,Saint-Dié-des-Vosges,48.28333,6.95,2980827,France,P,PPLA3,France,48.28152222,6.95174722,Saint-Dié-des-Vosges,1,0.23900311065591728,0.059272357383663966,0,0.029636178691831983
pl519,Bojnice,48.78511,18.5864,3061015,Slovakia,P,PPL,Slovakia,48.78133056,18.58403889,Bojnice,1,0.45446702588143423,0.11316574443039887,0,0.056582872215199434
pl520,Le Bémont,47.26298,7.0152,8224886,Switzerland,P,PPL,Switzerland,47.26353889,7.012625,LE BÉMONT,1,0.20400631105900355,0.05051870569168858,0,0.02525935284584429
pl521,Aarau,47.39254,8.04422,2661881,Switzerland,P,PPLA,Switzerland,47.39284722,8.04373889,AARAU,1,0.0497853644182386,0.011943851246454388,0,0.005971925623227194
pl522,Gießen,50.58727,8.67554,2920512,Germany,P,PPLA2,Germany,50.583333,8.666667,GIESSEN,0.7142857142857143,0.7642481521601606,0.1906504319282509,0.2857142857142857,0.23818235882126831
